<?xml version='1.0' encoding='UTF-8'?>
<gpx xmlns="http://www.topografix.com/GPX/1/1" creator="gpx.studio" version="1.1">
  <metadata>
    <name>Percorso Unito</name>
  </metadata>
  <trk>
    <name>Percorso Unito</name>
    <trkseg>
      <trkpt lat="41.997647" lon="13.728737">
        <ele>993.88</ele>
      </trkpt>
      <trkpt lat="41.997608" lon="13.728782">
        <ele>991.92</ele>
      </trkpt>
      <trkpt lat="41.997679" lon="13.728967">
        <ele>989.09</ele>
      </trkpt>
      <trkpt lat="41.997821" lon="13.729174">
        <ele>988.51</ele>
      </trkpt>
      <trkpt lat="41.99798" lon="13.729336">
        <ele>989.37</ele>
      </trkpt>
      <trkpt lat="41.997947" lon="13.729391">
        <ele>987.13</ele>
      </trkpt>
      <trkpt lat="41.997928" lon="13.729395">
        <ele>986.42</ele>
      </trkpt>
      <trkpt lat="41.997824" lon="13.729252">
        <ele>986.82</ele>
      </trkpt>
      <trkpt lat="41.997787" lon="13.729227">
        <ele>986.21</ele>
      </trkpt>
      <trkpt lat="41.997727" lon="13.72923">
        <ele>984.3</ele>
      </trkpt>
      <trkpt lat="41.997658" lon="13.729273">
        <ele>981.25</ele>
      </trkpt>
      <trkpt lat="41.997512" lon="13.729417">
        <ele>974.95</ele>
      </trkpt>
      <trkpt lat="41.997325" lon="13.729572">
        <ele>971.01</ele>
      </trkpt>
      <trkpt lat="41.997128" lon="13.729735">
        <ele>969.36</ele>
      </trkpt>
      <trkpt lat="41.996958" lon="13.729893">
        <ele>965.54</ele>
      </trkpt>
      <trkpt lat="41.996778" lon="13.730081">
        <ele>959.3</ele>
      </trkpt>
      <trkpt lat="41.996752" lon="13.730055">
        <ele>959.5</ele>
      </trkpt>
      <trkpt lat="41.996721" lon="13.730056">
        <ele>958.98</ele>
      </trkpt>
      <trkpt lat="41.996625" lon="13.730161">
        <ele>956.15</ele>
      </trkpt>
      <trkpt lat="41.996504" lon="13.730318">
        <ele>951.86</ele>
      </trkpt>
      <trkpt lat="41.996342" lon="13.730465">
        <ele>949.24</ele>
      </trkpt>
      <trkpt lat="41.996182" lon="13.730632">
        <ele>948.41</ele>
      </trkpt>
      <trkpt lat="41.995883" lon="13.731023">
        <ele>944.92</ele>
      </trkpt>
      <trkpt lat="41.995742" lon="13.73123">
        <ele>941.42</ele>
      </trkpt>
      <trkpt lat="41.995599" lon="13.73141">
        <ele>939.37</ele>
      </trkpt>
      <trkpt lat="41.995405" lon="13.731612">
        <ele>935.19</ele>
      </trkpt>
      <trkpt lat="41.995291" lon="13.731776">
        <ele>930.66</ele>
      </trkpt>
      <trkpt lat="41.995193" lon="13.73201">
        <ele>925.46</ele>
      </trkpt>
      <trkpt lat="41.995051" lon="13.732241">
        <ele>921.58</ele>
      </trkpt>
      <trkpt lat="41.994945" lon="13.73236">
        <ele>921.48</ele>
      </trkpt>
      <trkpt lat="41.994857" lon="13.732435">
        <ele>921.15</ele>
      </trkpt>
      <trkpt lat="41.994718" lon="13.732588">
        <ele>922.1</ele>
      </trkpt>
      <trkpt lat="41.994655" lon="13.732617">
        <ele>922.17</ele>
      </trkpt>
      <trkpt lat="41.994624" lon="13.732631">
        <ele>922.2</ele>
      </trkpt>
      <trkpt lat="41.994449" lon="13.732658">
        <ele>920.53</ele>
      </trkpt>
      <trkpt lat="41.994255" lon="13.732747">
        <ele>919.43</ele>
      </trkpt>
      <trkpt lat="41.99414" lon="13.732849">
        <ele>919</ele>
      </trkpt>
      <trkpt lat="41.993835" lon="13.73316">
        <ele>916.99</ele>
      </trkpt>
      <trkpt lat="41.993482" lon="13.73349">
        <ele>915.17</ele>
      </trkpt>
      <trkpt lat="41.993317" lon="13.733559">
        <ele>913.39</ele>
      </trkpt>
      <trkpt lat="41.993227" lon="13.733613">
        <ele>912.61</ele>
      </trkpt>
      <trkpt lat="41.993073" lon="13.73375">
        <ele>911.65</ele>
      </trkpt>
      <trkpt lat="41.992968" lon="13.73386">
        <ele>910.42</ele>
      </trkpt>
      <trkpt lat="41.992846" lon="13.734031">
        <ele>910.24</ele>
      </trkpt>
      <trkpt lat="41.992748" lon="13.734184">
        <ele>908.83</ele>
      </trkpt>
      <trkpt lat="41.992655" lon="13.73431">
        <ele>908.33</ele>
      </trkpt>
      <trkpt lat="41.992567" lon="13.73441">
        <ele>909.4</ele>
      </trkpt>
      <trkpt lat="41.992372" lon="13.73457">
        <ele>911.49</ele>
      </trkpt>
      <trkpt lat="41.99228" lon="13.734605">
        <ele>911.11</ele>
      </trkpt>
      <trkpt lat="41.992067" lon="13.734723">
        <ele>910.66</ele>
      </trkpt>
      <trkpt lat="41.991995" lon="13.734809">
        <ele>911.04</ele>
      </trkpt>
      <trkpt lat="41.991865" lon="13.7349">
        <ele>908.91</ele>
      </trkpt>
      <trkpt lat="41.991729" lon="13.735146">
        <ele>908.8</ele>
      </trkpt>
      <trkpt lat="41.991663" lon="13.735305">
        <ele>909.97</ele>
      </trkpt>
      <trkpt lat="41.991546" lon="13.735499">
        <ele>909.06</ele>
      </trkpt>
      <trkpt lat="41.991501" lon="13.735624">
        <ele>909.91</ele>
      </trkpt>
      <trkpt lat="41.991473" lon="13.735702">
        <ele>910.44</ele>
      </trkpt>
      <trkpt lat="41.991389" lon="13.735866">
        <ele>911.05</ele>
      </trkpt>
      <trkpt lat="41.991371" lon="13.736005">
        <ele>913.14</ele>
      </trkpt>
      <trkpt lat="41.991317" lon="13.736161">
        <ele>915.01</ele>
      </trkpt>
      <trkpt lat="41.991253" lon="13.736231">
        <ele>915.23</ele>
      </trkpt>
      <trkpt lat="41.991116" lon="13.736346">
        <ele>915.09</ele>
      </trkpt>
      <trkpt lat="41.990922" lon="13.736488">
        <ele>913.99</ele>
      </trkpt>
      <trkpt lat="41.990671" lon="13.736622">
        <ele>912.27</ele>
      </trkpt>
      <trkpt lat="41.990577" lon="13.736657">
        <ele>910.67</ele>
      </trkpt>
      <trkpt lat="41.990486" lon="13.736704">
        <ele>909.67</ele>
      </trkpt>
      <trkpt lat="41.990262" lon="13.736856">
        <ele>907.18</ele>
      </trkpt>
      <trkpt lat="41.990157" lon="13.737038">
        <ele>907.44</ele>
      </trkpt>
      <trkpt lat="41.989999" lon="13.737219">
        <ele>908.9</ele>
      </trkpt>
      <trkpt lat="41.98991" lon="13.737335">
        <ele>909.45</ele>
      </trkpt>
      <trkpt lat="41.989875" lon="13.737396">
        <ele>910.24</ele>
      </trkpt>
      <trkpt lat="41.989776" lon="13.737503">
        <ele>910.86</ele>
      </trkpt>
      <trkpt lat="41.989699" lon="13.737562">
        <ele>910.34</ele>
      </trkpt>
      <trkpt lat="41.989615" lon="13.73765">
        <ele>910.32</ele>
      </trkpt>
      <trkpt lat="41.989522" lon="13.737725">
        <ele>910.47</ele>
      </trkpt>
      <trkpt lat="41.989334" lon="13.737926">
        <ele>910.86</ele>
      </trkpt>
      <trkpt lat="41.989287" lon="13.738016">
        <ele>911.17</ele>
      </trkpt>
      <trkpt lat="41.989248" lon="13.73792">
        <ele>909.59</ele>
      </trkpt>
      <trkpt lat="41.989187" lon="13.737827">
        <ele>908.04</ele>
      </trkpt>
      <trkpt lat="41.989113" lon="13.737761">
        <ele>906.69</ele>
      </trkpt>
      <trkpt lat="41.988836" lon="13.737642">
        <ele>904.16</ele>
      </trkpt>
      <trkpt lat="41.988486" lon="13.737486">
        <ele>906.11</ele>
      </trkpt>
      <trkpt lat="41.988333" lon="13.737392">
        <ele>907.63</ele>
      </trkpt>
      <trkpt lat="41.988191" lon="13.737322">
        <ele>910.02</ele>
      </trkpt>
      <trkpt lat="41.988135" lon="13.737328">
        <ele>911.09</ele>
      </trkpt>
      <trkpt lat="41.988014" lon="13.737432">
        <ele>913.62</ele>
      </trkpt>
      <trkpt lat="41.987806" lon="13.737663">
        <ele>915.48</ele>
      </trkpt>
      <trkpt lat="41.987643" lon="13.737819">
        <ele>917.14</ele>
      </trkpt>
      <trkpt lat="41.987586" lon="13.738517">
        <ele>912.91</ele>
      </trkpt>
      <trkpt lat="41.98713" lon="13.738803">
        <ele>918.14</ele>
      </trkpt>
      <trkpt lat="41.987047" lon="13.738963">
        <ele>918.22</ele>
      </trkpt>
      <trkpt lat="41.986946" lon="13.73905">
        <ele>919.43</ele>
      </trkpt>
      <trkpt lat="41.986741" lon="13.739184">
        <ele>921.09</ele>
      </trkpt>
      <trkpt lat="41.986288" lon="13.739436">
        <ele>926.04</ele>
      </trkpt>
      <trkpt lat="41.986123" lon="13.73948">
        <ele>928.12</ele>
      </trkpt>
      <trkpt lat="41.986022" lon="13.739575">
        <ele>926.88</ele>
      </trkpt>
      <trkpt lat="41.985759" lon="13.739669">
        <ele>926.73</ele>
      </trkpt>
      <trkpt lat="41.985105" lon="13.739793">
        <ele>932.6</ele>
      </trkpt>
      <trkpt lat="41.98476" lon="13.739873">
        <ele>937.56</ele>
      </trkpt>
      <trkpt lat="41.984606" lon="13.739922">
        <ele>937.41</ele>
      </trkpt>
      <trkpt lat="41.984437" lon="13.739954">
        <ele>936.34</ele>
      </trkpt>
      <trkpt lat="41.984321" lon="13.739948">
        <ele>935.63</ele>
      </trkpt>
      <trkpt lat="41.984114" lon="13.739884">
        <ele>934.71</ele>
      </trkpt>
      <trkpt lat="41.983827" lon="13.739836">
        <ele>932.38</ele>
      </trkpt>
      <trkpt lat="41.983468" lon="13.739744">
        <ele>932.58</ele>
      </trkpt>
      <trkpt lat="41.983133" lon="13.739667">
        <ele>934.84</ele>
      </trkpt>
      <trkpt lat="41.982946" lon="13.739629">
        <ele>934.29</ele>
      </trkpt>
      <trkpt lat="41.982302" lon="13.73946">
        <ele>938.67</ele>
      </trkpt>
      <trkpt lat="41.982242" lon="13.739474">
        <ele>938.36</ele>
      </trkpt>
      <trkpt lat="41.981981" lon="13.739766">
        <ele>933.17</ele>
      </trkpt>
      <trkpt lat="41.981863" lon="13.739836">
        <ele>932.88</ele>
      </trkpt>
      <trkpt lat="41.981733" lon="13.73994">
        <ele>932.06</ele>
      </trkpt>
      <trkpt lat="41.98156" lon="13.740141">
        <ele>929.91</ele>
      </trkpt>
      <trkpt lat="41.98141" lon="13.740276">
        <ele>928.74</ele>
      </trkpt>
      <trkpt lat="41.981071" lon="13.740461">
        <ele>928.14</ele>
      </trkpt>
      <trkpt lat="41.981076" lon="13.740459">
        <ele>928.16</ele>
      </trkpt>
      <trkpt lat="41.980952" lon="13.740381">
        <ele>930.47</ele>
      </trkpt>
      <trkpt lat="41.980623" lon="13.740352">
        <ele>932.56</ele>
      </trkpt>
      <trkpt lat="41.98022" lon="13.740391">
        <ele>935.05</ele>
      </trkpt>
      <trkpt lat="41.979539" lon="13.740523">
        <ele>939.06</ele>
      </trkpt>
      <trkpt lat="41.979056" lon="13.740692">
        <ele>940.89</ele>
      </trkpt>
      <trkpt lat="41.979002" lon="13.740693">
        <ele>941.6</ele>
      </trkpt>
      <trkpt lat="41.978938" lon="13.740662">
        <ele>943.17</ele>
      </trkpt>
      <trkpt lat="41.978927" lon="13.740597">
        <ele>944.52</ele>
      </trkpt>
      <trkpt lat="41.978934" lon="13.740537">
        <ele>945.53</ele>
      </trkpt>
      <trkpt lat="41.978952" lon="13.740512">
        <ele>945.85</ele>
      </trkpt>
      <trkpt lat="41.979043" lon="13.74046">
        <ele>946.01</ele>
      </trkpt>
      <trkpt lat="41.979178" lon="13.740402">
        <ele>945.01</ele>
      </trkpt>
      <trkpt lat="41.979318" lon="13.740329">
        <ele>945.17</ele>
      </trkpt>
      <trkpt lat="41.979774" lon="13.739926">
        <ele>948.36</ele>
      </trkpt>
      <trkpt lat="41.979985" lon="13.739757">
        <ele>948.98</ele>
      </trkpt>
      <trkpt lat="41.980496" lon="13.739557">
        <ele>948.43</ele>
      </trkpt>
      <trkpt lat="41.980561" lon="13.739503">
        <ele>948.85</ele>
      </trkpt>
      <trkpt lat="41.980672" lon="13.73933">
        <ele>951.18</ele>
      </trkpt>
      <trkpt lat="41.980869" lon="13.739118">
        <ele>953.45</ele>
      </trkpt>
      <trkpt lat="41.980939" lon="13.739069">
        <ele>954.02</ele>
      </trkpt>
      <trkpt lat="41.981686" lon="13.738707">
        <ele>957.77</ele>
      </trkpt>
      <trkpt lat="41.982433" lon="13.738345">
        <ele>965.92</ele>
      </trkpt>
      <trkpt lat="41.982806" lon="13.73817">
        <ele>971.36</ele>
      </trkpt>
      <trkpt lat="41.983014" lon="13.738142">
        <ele>972.15</ele>
      </trkpt>
      <trkpt lat="41.983291" lon="13.738181">
        <ele>970.42</ele>
      </trkpt>
      <trkpt lat="41.983574" lon="13.738253">
        <ele>969.09</ele>
      </trkpt>
      <trkpt lat="41.983655" lon="13.738257">
        <ele>968.4</ele>
      </trkpt>
      <trkpt lat="41.983699" lon="13.738214">
        <ele>968.8</ele>
      </trkpt>
      <trkpt lat="41.983712" lon="13.738153">
        <ele>969.76</ele>
      </trkpt>
      <trkpt lat="41.9837" lon="13.738094">
        <ele>970.89</ele>
      </trkpt>
      <trkpt lat="41.983676" lon="13.738055">
        <ele>971.75</ele>
      </trkpt>
      <trkpt lat="41.98361" lon="13.738013">
        <ele>973.14</ele>
      </trkpt>
      <trkpt lat="41.983486" lon="13.73796">
        <ele>975.75</ele>
      </trkpt>
      <trkpt lat="41.983404" lon="13.737899">
        <ele>977.84</ele>
      </trkpt>
      <trkpt lat="41.983269" lon="13.737731">
        <ele>983.03</ele>
      </trkpt>
      <trkpt lat="41.983131" lon="13.737461">
        <ele>990.17</ele>
      </trkpt>
      <trkpt lat="41.982994" lon="13.737191">
        <ele>988.3</ele>
      </trkpt>
      <trkpt lat="41.982815" lon="13.736875">
        <ele>983.09</ele>
      </trkpt>
      <trkpt lat="41.98276" lon="13.73679">
        <ele>982.84</ele>
      </trkpt>
      <trkpt lat="41.982738" lon="13.736772">
        <ele>983.09</ele>
      </trkpt>
      <trkpt lat="41.982693" lon="13.736762">
        <ele>984.21</ele>
      </trkpt>
      <trkpt lat="41.982643" lon="13.736781">
        <ele>986.08</ele>
      </trkpt>
      <trkpt lat="41.982627" lon="13.736802">
        <ele>986.94</ele>
      </trkpt>
      <trkpt lat="41.98262" lon="13.73683">
        <ele>987.62</ele>
      </trkpt>
      <trkpt lat="41.982614" lon="13.736907">
        <ele>989.1</ele>
      </trkpt>
      <trkpt lat="41.982638" lon="13.737276">
        <ele>994.35</ele>
      </trkpt>
      <trkpt lat="41.982654" lon="13.737501">
        <ele>989.91</ele>
      </trkpt>
      <trkpt lat="41.98264" lon="13.737609">
        <ele>986.86</ele>
      </trkpt>
      <trkpt lat="41.982592" lon="13.737689">
        <ele>984.74</ele>
      </trkpt>
      <trkpt lat="41.982543" lon="13.737725">
        <ele>983.59</ele>
      </trkpt>
      <trkpt lat="41.982492" lon="13.737734">
        <ele>983.02</ele>
      </trkpt>
      <trkpt lat="41.982445" lon="13.737727">
        <ele>982.85</ele>
      </trkpt>
      <trkpt lat="41.982401" lon="13.73771">
        <ele>983</ele>
      </trkpt>
      <trkpt lat="41.982363" lon="13.737675">
        <ele>983.74</ele>
      </trkpt>
      <trkpt lat="41.982284" lon="13.737547">
        <ele>987.27</ele>
      </trkpt>
      <trkpt lat="41.982264" lon="13.737464">
        <ele>989.26</ele>
      </trkpt>
      <trkpt lat="41.982255" lon="13.737362">
        <ele>991.97</ele>
      </trkpt>
      <trkpt lat="41.982255" lon="13.737236">
        <ele>995.42</ele>
      </trkpt>
      <trkpt lat="41.982261" lon="13.737112">
        <ele>997.33</ele>
      </trkpt>
      <trkpt lat="41.982276" lon="13.737025">
        <ele>997.48</ele>
      </trkpt>
      <trkpt lat="41.982304" lon="13.736941">
        <ele>996.6</ele>
      </trkpt>
      <trkpt lat="41.982392" lon="13.736777">
        <ele>992.04</ele>
      </trkpt>
      <trkpt lat="41.982418" lon="13.736697">
        <ele>989.93</ele>
      </trkpt>
      <trkpt lat="41.982433" lon="13.736618">
        <ele>987.92</ele>
      </trkpt>
      <trkpt lat="41.982422" lon="13.736571">
        <ele>987.3</ele>
      </trkpt>
      <trkpt lat="41.982401" lon="13.73654">
        <ele>987.2</ele>
      </trkpt>
      <trkpt lat="41.982377" lon="13.73653">
        <ele>987.6</ele>
      </trkpt>
      <trkpt lat="41.982329" lon="13.736548">
        <ele>989.3</ele>
      </trkpt>
      <trkpt lat="41.982309" lon="13.736566">
        <ele>990.31</ele>
      </trkpt>
      <trkpt lat="41.982189" lon="13.736821">
        <ele>997.21</ele>
      </trkpt>
      <trkpt lat="41.981991" lon="13.737126">
        <ele>998.15</ele>
      </trkpt>
      <trkpt lat="41.981921" lon="13.737183">
        <ele>998.43</ele>
      </trkpt>
      <trkpt lat="41.981543" lon="13.737318">
        <ele>1002.7</ele>
      </trkpt>
      <trkpt lat="41.981269" lon="13.737433">
        <ele>1004.98</ele>
      </trkpt>
      <trkpt lat="41.980982" lon="13.737569">
        <ele>1007.79</ele>
      </trkpt>
      <trkpt lat="41.980937" lon="13.737634">
        <ele>1007.68</ele>
      </trkpt>
      <trkpt lat="41.980873" lon="13.737818">
        <ele>1005.67</ele>
      </trkpt>
      <trkpt lat="41.98084" lon="13.737846">
        <ele>1005.92</ele>
      </trkpt>
      <trkpt lat="41.980809" lon="13.737855">
        <ele>1006.48</ele>
      </trkpt>
      <trkpt lat="41.980758" lon="13.73783">
        <ele>1007.97</ele>
      </trkpt>
      <trkpt lat="41.980736" lon="13.737736">
        <ele>1009.79</ele>
      </trkpt>
      <trkpt lat="41.980735" lon="13.737684">
        <ele>1010.71</ele>
      </trkpt>
      <trkpt lat="41.980766" lon="13.73751">
        <ele>1012.76</ele>
      </trkpt>
      <trkpt lat="41.980788" lon="13.737458">
        <ele>1013.16</ele>
      </trkpt>
      <trkpt lat="41.980866" lon="13.737328">
        <ele>1013.44</ele>
      </trkpt>
      <trkpt lat="41.980966" lon="13.737216">
        <ele>1013.52</ele>
      </trkpt>
      <trkpt lat="41.98107" lon="13.737128">
        <ele>1013.44</ele>
      </trkpt>
      <trkpt lat="41.981188" lon="13.737051">
        <ele>1012.62</ele>
      </trkpt>
      <trkpt lat="41.981254" lon="13.736986">
        <ele>1011.92</ele>
      </trkpt>
      <trkpt lat="41.981263" lon="13.736926">
        <ele>1012.12</ele>
      </trkpt>
      <trkpt lat="41.981254" lon="13.736894">
        <ele>1012.16</ele>
      </trkpt>
      <trkpt lat="41.981218" lon="13.736832">
        <ele>1012.01</ele>
      </trkpt>
      <trkpt lat="41.981194" lon="13.736813">
        <ele>1012.33</ele>
      </trkpt>
      <trkpt lat="41.981171" lon="13.736814">
        <ele>1012.88</ele>
      </trkpt>
      <trkpt lat="41.980912" lon="13.736947">
        <ele>1018.28</ele>
      </trkpt>
      <trkpt lat="41.980567" lon="13.737023">
        <ele>1023.82</ele>
      </trkpt>
      <trkpt lat="41.98047" lon="13.737059">
        <ele>1025.6</ele>
      </trkpt>
      <trkpt lat="41.980417" lon="13.737092">
        <ele>1026.5</ele>
      </trkpt>
      <trkpt lat="41.980308" lon="13.73721">
        <ele>1027.05</ele>
      </trkpt>
      <trkpt lat="41.9802" lon="13.737406">
        <ele>1027.92</ele>
      </trkpt>
      <trkpt lat="41.980192" lon="13.737447">
        <ele>1027.71</ele>
      </trkpt>
      <trkpt lat="41.980188" lon="13.737822">
        <ele>1021.55</ele>
      </trkpt>
      <trkpt lat="41.980172" lon="13.737947">
        <ele>1018.67</ele>
      </trkpt>
      <trkpt lat="41.98016" lon="13.737965">
        <ele>1018.61</ele>
      </trkpt>
      <trkpt lat="41.980105" lon="13.737965">
        <ele>1021.17</ele>
      </trkpt>
      <trkpt lat="41.980069" lon="13.73794">
        <ele>1023.73</ele>
      </trkpt>
      <trkpt lat="41.980041" lon="13.737895">
        <ele>1025.15</ele>
      </trkpt>
      <trkpt lat="41.980015" lon="13.737656">
        <ele>1029.73</ele>
      </trkpt>
      <trkpt lat="41.979988" lon="13.737294">
        <ele>1035.14</ele>
      </trkpt>
      <trkpt lat="41.979973" lon="13.737221">
        <ele>1035.85</ele>
      </trkpt>
      <trkpt lat="41.979943" lon="13.737161">
        <ele>1035.8</ele>
      </trkpt>
      <trkpt lat="41.979887" lon="13.737082">
        <ele>1035.77</ele>
      </trkpt>
      <trkpt lat="41.979813" lon="13.737026">
        <ele>1035.31</ele>
      </trkpt>
      <trkpt lat="41.979387" lon="13.736864">
        <ele>1039.02</ele>
      </trkpt>
      <trkpt lat="41.979082" lon="13.736814">
        <ele>1043.71</ele>
      </trkpt>
      <trkpt lat="41.9789666970772" lon="13.73678047580218">
        <ele>1044.6903287766436</ele>
      </trkpt>
      <trkpt lat="41.978855" lon="13.736748">
        <ele>1045.64</ele>
      </trkpt>
      <trkpt lat="41.978663" lon="13.736618">
        <ele>1045.7</ele>
      </trkpt>
      <trkpt lat="41.978471" lon="13.736421">
        <ele>1044.68</ele>
      </trkpt>
      <trkpt lat="41.978177" lon="13.736148">
        <ele>1043.93</ele>
      </trkpt>
      <trkpt lat="41.977924" lon="13.736036">
        <ele>1047.34</ele>
      </trkpt>
      <trkpt lat="41.977671" lon="13.735959">
        <ele>1050.99</ele>
      </trkpt>
      <trkpt lat="41.977539" lon="13.735893">
        <ele>1051.85</ele>
      </trkpt>
      <trkpt lat="41.977084" lon="13.735666">
        <ele>1054.83</ele>
      </trkpt>
      <trkpt lat="41.976877" lon="13.735586">
        <ele>1055.26</ele>
      </trkpt>
      <trkpt lat="41.976722" lon="13.735549">
        <ele>1056.9</ele>
      </trkpt>
      <trkpt lat="41.976447" lon="13.735424">
        <ele>1056.52</ele>
      </trkpt>
      <trkpt lat="41.976263" lon="13.735363">
        <ele>1058.25</ele>
      </trkpt>
      <trkpt lat="41.97602" lon="13.735313">
        <ele>1061.6</ele>
      </trkpt>
      <trkpt lat="41.975764" lon="13.735275">
        <ele>1064.43</ele>
      </trkpt>
      <trkpt lat="41.975419" lon="13.735236">
        <ele>1064.5</ele>
      </trkpt>
      <trkpt lat="41.97532" lon="13.735263">
        <ele>1064.39</ele>
      </trkpt>
      <trkpt lat="41.975278" lon="13.735294">
        <ele>1064.83</ele>
      </trkpt>
      <trkpt lat="41.975249" lon="13.735378">
        <ele>1067.13</ele>
      </trkpt>
      <trkpt lat="41.975228" lon="13.735484">
        <ele>1069.37</ele>
      </trkpt>
      <trkpt lat="41.975217" lon="13.735582">
        <ele>1071.17</ele>
      </trkpt>
      <trkpt lat="41.975194" lon="13.735683">
        <ele>1072.46</ele>
      </trkpt>
      <trkpt lat="41.975139" lon="13.735802">
        <ele>1073.66</ele>
      </trkpt>
      <trkpt lat="41.975048" lon="13.73589">
        <ele>1073.79</ele>
      </trkpt>
      <trkpt lat="41.974441" lon="13.736252">
        <ele>1075.54</ele>
      </trkpt>
      <trkpt lat="41.973747" lon="13.736561">
        <ele>1079.32</ele>
      </trkpt>
      <trkpt lat="41.973597" lon="13.736616">
        <ele>1081.33</ele>
      </trkpt>
      <trkpt lat="41.97346" lon="13.736682">
        <ele>1083.67</ele>
      </trkpt>
      <trkpt lat="41.972994" lon="13.736973">
        <ele>1093.39</ele>
      </trkpt>
      <trkpt lat="41.972759" lon="13.737124">
        <ele>1096.71</ele>
      </trkpt>
      <trkpt lat="41.97234" lon="13.737302">
        <ele>1097.74</ele>
      </trkpt>
      <trkpt lat="41.972291" lon="13.737315">
        <ele>1097.8</ele>
      </trkpt>
      <trkpt lat="41.972118" lon="13.737319">
        <ele>1098.28</ele>
      </trkpt>
      <trkpt lat="41.972027" lon="13.737306">
        <ele>1098.77</ele>
      </trkpt>
      <trkpt lat="41.971883" lon="13.737261">
        <ele>1100.14</ele>
      </trkpt>
      <trkpt lat="41.971836" lon="13.73724">
        <ele>1101.49</ele>
      </trkpt>
      <trkpt lat="41.971753" lon="13.737182">
        <ele>1102.9</ele>
      </trkpt>
      <trkpt lat="41.97156" lon="13.73696">
        <ele>1101.78</ele>
      </trkpt>
      <trkpt lat="41.971327" lon="13.736733">
        <ele>1102.5</ele>
      </trkpt>
      <trkpt lat="41.971265" lon="13.736662">
        <ele>1103.01</ele>
      </trkpt>
      <trkpt lat="41.971154" lon="13.736503">
        <ele>1101.63</ele>
      </trkpt>
      <trkpt lat="41.971088" lon="13.736341">
        <ele>1101.19</ele>
      </trkpt>
      <trkpt lat="41.97109" lon="13.736243">
        <ele>1101.17</ele>
      </trkpt>
      <trkpt lat="41.971121" lon="13.736033">
        <ele>1100.86</ele>
      </trkpt>
      <trkpt lat="41.971112" lon="13.735982">
        <ele>1101</ele>
      </trkpt>
      <trkpt lat="41.971075" lon="13.735942">
        <ele>1101.47</ele>
      </trkpt>
      <trkpt lat="41.970808" lon="13.735847">
        <ele>1106.5</ele>
      </trkpt>
      <trkpt lat="41.970714" lon="13.735833">
        <ele>1108.58</ele>
      </trkpt>
      <trkpt lat="41.970578" lon="13.735831">
        <ele>1111.44</ele>
      </trkpt>
      <trkpt lat="41.970397" lon="13.735875">
        <ele>1113.24</ele>
      </trkpt>
      <trkpt lat="41.970258" lon="13.735927">
        <ele>1114.01</ele>
      </trkpt>
      <trkpt lat="41.96993" lon="13.736079">
        <ele>1112.41</ele>
      </trkpt>
      <trkpt lat="41.969838" lon="13.73614">
        <ele>1113.63</ele>
      </trkpt>
      <trkpt lat="41.969778" lon="13.736187">
        <ele>1115</ele>
      </trkpt>
      <trkpt lat="41.969731" lon="13.736046">
        <ele>1114.57</ele>
      </trkpt>
      <trkpt lat="41.969712" lon="13.736024">
        <ele>1114.64</ele>
      </trkpt>
      <trkpt lat="41.969689" lon="13.736022">
        <ele>1114.92</ele>
      </trkpt>
      <trkpt lat="41.969606" lon="13.736082">
        <ele>1117.08</ele>
      </trkpt>
      <trkpt lat="41.969568" lon="13.736084">
        <ele>1117.71</ele>
      </trkpt>
      <trkpt lat="41.969526" lon="13.736034">
        <ele>1117.13</ele>
      </trkpt>
      <trkpt lat="41.969217" lon="13.735342">
        <ele>1108.11</ele>
      </trkpt>
      <trkpt lat="41.968966" lon="13.735562">
        <ele>1112.27</ele>
      </trkpt>
      <trkpt lat="41.968877" lon="13.735617">
        <ele>1113.7</ele>
      </trkpt>
      <trkpt lat="41.968732" lon="13.735648">
        <ele>1114.74</ele>
      </trkpt>
      <trkpt lat="41.968586" lon="13.735583">
        <ele>1113.65</ele>
      </trkpt>
      <trkpt lat="41.968553" lon="13.735629">
        <ele>1114.12</ele>
      </trkpt>
      <trkpt lat="41.968489" lon="13.735661">
        <ele>1114.49</ele>
      </trkpt>
      <trkpt lat="41.968322" lon="13.735706">
        <ele>1114.65</ele>
      </trkpt>
      <trkpt lat="41.967435" lon="13.735914">
        <ele>1118.18</ele>
      </trkpt>
      <trkpt lat="41.967244" lon="13.735966">
        <ele>1121.28</ele>
      </trkpt>
      <trkpt lat="41.967095" lon="13.736033">
        <ele>1123.19</ele>
      </trkpt>
      <trkpt lat="41.966954" lon="13.736073">
        <ele>1124.61</ele>
      </trkpt>
      <trkpt lat="41.966814" lon="13.73608">
        <ele>1125.5</ele>
      </trkpt>
      <trkpt lat="41.966592" lon="13.736013">
        <ele>1125.37</ele>
      </trkpt>
      <trkpt lat="41.966425" lon="13.735933">
        <ele>1123.76</ele>
      </trkpt>
      <trkpt lat="41.966247" lon="13.735933">
        <ele>1123.68</ele>
      </trkpt>
      <trkpt lat="41.966126" lon="13.735949">
        <ele>1124.41</ele>
      </trkpt>
      <trkpt lat="41.966038" lon="13.735944">
        <ele>1125.59</ele>
      </trkpt>
      <trkpt lat="41.965962" lon="13.735922">
        <ele>1126.33</ele>
      </trkpt>
      <trkpt lat="41.965847" lon="13.735847">
        <ele>1127.17</ele>
      </trkpt>
      <trkpt lat="41.96567" lon="13.735649">
        <ele>1128.78</ele>
      </trkpt>
      <trkpt lat="41.96551" lon="13.735567">
        <ele>1130.81</ele>
      </trkpt>
      <trkpt lat="41.96517" lon="13.735516">
        <ele>1133.95</ele>
      </trkpt>
      <trkpt lat="41.96412" lon="13.735359">
        <ele>1143.64</ele>
      </trkpt>
      <trkpt lat="41.963993" lon="13.735314">
        <ele>1144.12</ele>
      </trkpt>
      <trkpt lat="41.963606" lon="13.735076">
        <ele>1146.38</ele>
      </trkpt>
      <trkpt lat="41.96329" lon="13.735128">
        <ele>1150.78</ele>
      </trkpt>
      <trkpt lat="41.963179" lon="13.735091">
        <ele>1152.93</ele>
      </trkpt>
      <trkpt lat="41.96313" lon="13.734972">
        <ele>1152.15</ele>
      </trkpt>
      <trkpt lat="41.963074" lon="13.734741">
        <ele>1150.95</ele>
      </trkpt>
      <trkpt lat="41.96298" lon="13.73445">
        <ele>1150.58</ele>
      </trkpt>
      <trkpt lat="41.962881" lon="13.734309">
        <ele>1149.65</ele>
      </trkpt>
      <trkpt lat="41.962764" lon="13.734279">
        <ele>1149.13</ele>
      </trkpt>
      <trkpt lat="41.962541" lon="13.734339">
        <ele>1149.24</ele>
      </trkpt>
      <trkpt lat="41.962318" lon="13.734398">
        <ele>1152.74</ele>
      </trkpt>
      <trkpt lat="41.962094" lon="13.734458">
        <ele>1158.27</ele>
      </trkpt>
      <trkpt lat="41.961735" lon="13.734517">
        <ele>1163</ele>
      </trkpt>
      <trkpt lat="41.961414" lon="13.734465">
        <ele>1165.87</ele>
      </trkpt>
      <trkpt lat="41.961142" lon="13.734413">
        <ele>1166.44</ele>
      </trkpt>
      <trkpt lat="41.960616" lon="13.734361">
        <ele>1171.61</ele>
      </trkpt>
      <trkpt lat="41.960549" lon="13.734342">
        <ele>1171.81</ele>
      </trkpt>
      <trkpt lat="41.960212" lon="13.734205">
        <ele>1171.95</ele>
      </trkpt>
      <trkpt lat="41.959819" lon="13.733974">
        <ele>1177.54</ele>
      </trkpt>
      <trkpt lat="41.959432" lon="13.733795">
        <ele>1182.56</ele>
      </trkpt>
      <trkpt lat="41.959105" lon="13.733713">
        <ele>1186.24</ele>
      </trkpt>
      <trkpt lat="41.958596" lon="13.73369">
        <ele>1188.56</ele>
      </trkpt>
      <trkpt lat="41.957832" lon="13.733654">
        <ele>1189.21</ele>
      </trkpt>
      <trkpt lat="41.957345" lon="13.733691">
        <ele>1192.52</ele>
      </trkpt>
      <trkpt lat="41.956797" lon="13.733892">
        <ele>1198.39</ele>
      </trkpt>
      <trkpt lat="41.95647" lon="13.733937">
        <ele>1200.21</ele>
      </trkpt>
      <trkpt lat="41.955917" lon="13.733882">
        <ele>1203.81</ele>
      </trkpt>
      <trkpt lat="41.95564" lon="13.733854">
        <ele>1206.72</ele>
      </trkpt>
      <trkpt lat="41.955529" lon="13.733835">
        <ele>1208.45</ele>
      </trkpt>
      <trkpt lat="41.955233" lon="13.733815">
        <ele>1211.14</ele>
      </trkpt>
      <trkpt lat="41.955077" lon="13.733832">
        <ele>1211.82</ele>
      </trkpt>
      <trkpt lat="41.954792" lon="13.733881">
        <ele>1212.85</ele>
      </trkpt>
      <trkpt lat="41.953937" lon="13.734028">
        <ele>1219.79</ele>
      </trkpt>
      <trkpt lat="41.95314" lon="13.734146">
        <ele>1225.49</ele>
      </trkpt>
      <trkpt lat="41.952516" lon="13.734239">
        <ele>1233.07</ele>
      </trkpt>
      <trkpt lat="41.952453" lon="13.734284">
        <ele>1234.28</ele>
      </trkpt>
      <trkpt lat="41.952401" lon="13.734385">
        <ele>1235.72</ele>
      </trkpt>
      <trkpt lat="41.952376" lon="13.734542">
        <ele>1237.47</ele>
      </trkpt>
      <trkpt lat="41.952372" lon="13.734688">
        <ele>1239.18</ele>
      </trkpt>
      <trkpt lat="41.952388" lon="13.734797">
        <ele>1239.95</ele>
      </trkpt>
      <trkpt lat="41.952764" lon="13.735468">
        <ele>1244.7</ele>
      </trkpt>
      <trkpt lat="41.952927" lon="13.73569">
        <ele>1246.01</ele>
      </trkpt>
      <trkpt lat="41.953344" lon="13.736158">
        <ele>1246.91</ele>
      </trkpt>
      <trkpt lat="41.953432" lon="13.736229">
        <ele>1248.09</ele>
      </trkpt>
      <trkpt lat="41.953655" lon="13.736332">
        <ele>1249.29</ele>
      </trkpt>
      <trkpt lat="41.953709" lon="13.736383">
        <ele>1249.88</ele>
      </trkpt>
      <trkpt lat="41.953728" lon="13.736439">
        <ele>1251.09</ele>
      </trkpt>
      <trkpt lat="41.953703" lon="13.736529">
        <ele>1253.16</ele>
      </trkpt>
      <trkpt lat="41.95369" lon="13.736542">
        <ele>1253.54</ele>
      </trkpt>
      <trkpt lat="41.953655" lon="13.736579">
        <ele>1254.58</ele>
      </trkpt>
      <trkpt lat="41.953499" lon="13.736582">
        <ele>1254.69</ele>
      </trkpt>
      <trkpt lat="41.953296" lon="13.736515">
        <ele>1253.84</ele>
      </trkpt>
      <trkpt lat="41.953096" lon="13.736473">
        <ele>1255.92</ele>
      </trkpt>
      <trkpt lat="41.952906" lon="13.736464">
        <ele>1260.39</ele>
      </trkpt>
      <trkpt lat="41.952783" lon="13.736445">
        <ele>1262.44</ele>
      </trkpt>
      <trkpt lat="41.952587" lon="13.736375">
        <ele>1265.11</ele>
      </trkpt>
      <trkpt lat="41.951879" lon="13.736063">
        <ele>1266.65</ele>
      </trkpt>
      <trkpt lat="41.951401" lon="13.735956">
        <ele>1270.38</ele>
      </trkpt>
      <trkpt lat="41.9511" lon="13.735883">
        <ele>1270.04</ele>
      </trkpt>
      <trkpt lat="41.95071" lon="13.735813">
        <ele>1273.92</ele>
      </trkpt>
      <trkpt lat="41.950232" lon="13.735693">
        <ele>1276.03</ele>
      </trkpt>
      <trkpt lat="41.949429" lon="13.735507">
        <ele>1283.62</ele>
      </trkpt>
      <trkpt lat="41.949197" lon="13.735437">
        <ele>1285.87</ele>
      </trkpt>
      <trkpt lat="41.94904" lon="13.735342">
        <ele>1287.54</ele>
      </trkpt>
      <trkpt lat="41.948898" lon="13.735235">
        <ele>1288.89</ele>
      </trkpt>
      <trkpt lat="41.948339" lon="13.734671">
        <ele>1294.08</ele>
      </trkpt>
      <trkpt lat="41.94818" lon="13.734609">
        <ele>1296.11</ele>
      </trkpt>
      <trkpt lat="41.94807" lon="13.734584">
        <ele>1297.2</ele>
      </trkpt>
      <trkpt lat="41.947957" lon="13.734612">
        <ele>1298.97</ele>
      </trkpt>
      <trkpt lat="41.947744" lon="13.734724">
        <ele>1301.89</ele>
      </trkpt>
      <trkpt lat="41.947494" lon="13.734839">
        <ele>1303.88</ele>
      </trkpt>
      <trkpt lat="41.947301" lon="13.734896">
        <ele>1305.61</ele>
      </trkpt>
      <trkpt lat="41.947208" lon="13.734907">
        <ele>1306.37</ele>
      </trkpt>
      <trkpt lat="41.947085" lon="13.734853">
        <ele>1306.87</ele>
      </trkpt>
      <trkpt lat="41.946989" lon="13.734769">
        <ele>1308.22</ele>
      </trkpt>
      <trkpt lat="41.946857" lon="13.73457">
        <ele>1310.31</ele>
      </trkpt>
      <trkpt lat="41.946705" lon="13.734244">
        <ele>1311.5</ele>
      </trkpt>
      <trkpt lat="41.946515" lon="13.733748">
        <ele>1311.76</ele>
      </trkpt>
      <trkpt lat="41.946366" lon="13.733262">
        <ele>1312.17</ele>
      </trkpt>
      <trkpt lat="41.946137" lon="13.732527">
        <ele>1319.69</ele>
      </trkpt>
      <trkpt lat="41.946066" lon="13.732311">
        <ele>1320.31</ele>
      </trkpt>
      <trkpt lat="41.945989" lon="13.732179">
        <ele>1319.15</ele>
      </trkpt>
      <trkpt lat="41.945696" lon="13.731817">
        <ele>1315.86</ele>
      </trkpt>
      <trkpt lat="41.94521" lon="13.731258">
        <ele>1310.63</ele>
      </trkpt>
      <trkpt lat="41.94498" lon="13.730969">
        <ele>1310.29</ele>
      </trkpt>
      <trkpt lat="41.944432" lon="13.730284">
        <ele>1301.69</ele>
      </trkpt>
      <trkpt lat="41.944221" lon="13.730054">
        <ele>1299.04</ele>
      </trkpt>
      <trkpt lat="41.944133" lon="13.729937">
        <ele>1296.49</ele>
      </trkpt>
      <trkpt lat="41.944074" lon="13.729903">
        <ele>1295.13</ele>
      </trkpt>
      <trkpt lat="41.943972" lon="13.729913">
        <ele>1294.11</ele>
      </trkpt>
      <trkpt lat="41.943683" lon="13.729984">
        <ele>1293.76</ele>
      </trkpt>
      <trkpt lat="41.942952" lon="13.730085">
        <ele>1288.8</ele>
      </trkpt>
      <trkpt lat="41.942916" lon="13.73005">
        <ele>1287.91</ele>
      </trkpt>
      <trkpt lat="41.94271" lon="13.72996">
        <ele>1284.34</ele>
      </trkpt>
      <trkpt lat="41.942407" lon="13.729864">
        <ele>1280.13</ele>
      </trkpt>
      <trkpt lat="41.942153" lon="13.729725">
        <ele>1276.51</ele>
      </trkpt>
      <trkpt lat="41.942034" lon="13.729627">
        <ele>1274.43</ele>
      </trkpt>
      <trkpt lat="41.942074" lon="13.729504">
        <ele>1272.81</ele>
      </trkpt>
      <trkpt lat="41.942073" lon="13.729378">
        <ele>1270.61</ele>
      </trkpt>
      <trkpt lat="41.942039" lon="13.729287">
        <ele>1268.74</ele>
      </trkpt>
      <trkpt lat="41.942039" lon="13.729198">
        <ele>1267.01</ele>
      </trkpt>
      <trkpt lat="41.942039" lon="13.729287">
        <ele>1268.74</ele>
      </trkpt>
      <trkpt lat="41.942073" lon="13.729378">
        <ele>1270.61</ele>
      </trkpt>
      <trkpt lat="41.942074" lon="13.729504">
        <ele>1272.81</ele>
      </trkpt>
      <trkpt lat="41.942034" lon="13.729627">
        <ele>1274.43</ele>
      </trkpt>
      <trkpt lat="41.942153" lon="13.729725">
        <ele>1276.51</ele>
      </trkpt>
      <trkpt lat="41.942407" lon="13.729864">
        <ele>1280.13</ele>
      </trkpt>
      <trkpt lat="41.94271" lon="13.72996">
        <ele>1284.34</ele>
      </trkpt>
      <trkpt lat="41.942918" lon="13.730051">
        <ele>1287.95</ele>
      </trkpt>
      <trkpt lat="41.942952" lon="13.730085">
        <ele>1288.8</ele>
      </trkpt>
      <trkpt lat="41.943683" lon="13.729984">
        <ele>1293.76</ele>
      </trkpt>
      <trkpt lat="41.943972" lon="13.729913">
        <ele>1294.11</ele>
      </trkpt>
      <trkpt lat="41.944074" lon="13.729903">
        <ele>1295.13</ele>
      </trkpt>
      <trkpt lat="41.944133" lon="13.729937">
        <ele>1296.49</ele>
      </trkpt>
      <trkpt lat="41.944221" lon="13.730054">
        <ele>1299.04</ele>
      </trkpt>
      <trkpt lat="41.944432" lon="13.730284">
        <ele>1301.69</ele>
      </trkpt>
      <trkpt lat="41.94498" lon="13.730969">
        <ele>1310.29</ele>
      </trkpt>
      <trkpt lat="41.94521" lon="13.731258">
        <ele>1310.63</ele>
      </trkpt>
      <trkpt lat="41.945696" lon="13.731817">
        <ele>1315.86</ele>
      </trkpt>
      <trkpt lat="41.945989" lon="13.732179">
        <ele>1319.15</ele>
      </trkpt>
      <trkpt lat="41.945986" lon="13.732068">
        <ele>1319.25</ele>
      </trkpt>
      <trkpt lat="41.946023" lon="13.731509">
        <ele>1320.68</ele>
      </trkpt>
      <trkpt lat="41.946026" lon="13.731475">
        <ele>1320.72</ele>
      </trkpt>
      <trkpt lat="41.946052" lon="13.731381">
        <ele>1321.13</ele>
      </trkpt>
      <trkpt lat="41.946077" lon="13.731135">
        <ele>1321.53</ele>
      </trkpt>
      <trkpt lat="41.946113" lon="13.730966">
        <ele>1321.54</ele>
      </trkpt>
      <trkpt lat="41.946177" lon="13.73052">
        <ele>1321.09</ele>
      </trkpt>
      <trkpt lat="41.946223" lon="13.730123">
        <ele>1320.9</ele>
      </trkpt>
      <trkpt lat="41.946227" lon="13.729965">
        <ele>1321.21</ele>
      </trkpt>
      <trkpt lat="41.946289" lon="13.729775">
        <ele>1322.04</ele>
      </trkpt>
      <trkpt lat="41.946307" lon="13.729678">
        <ele>1322.98</ele>
      </trkpt>
      <trkpt lat="41.946253" lon="13.729378">
        <ele>1325.43</ele>
      </trkpt>
      <trkpt lat="41.946217" lon="13.729303">
        <ele>1326.73</ele>
      </trkpt>
      <trkpt lat="41.946095" lon="13.728973">
        <ele>1326.53</ele>
      </trkpt>
      <trkpt lat="41.946058" lon="13.728731">
        <ele>1323.68</ele>
      </trkpt>
      <trkpt lat="41.946007" lon="13.728549">
        <ele>1321.65</ele>
      </trkpt>
      <trkpt lat="41.945966" lon="13.728455">
        <ele>1320.18</ele>
      </trkpt>
      <trkpt lat="41.945952" lon="13.728375">
        <ele>1319.85</ele>
      </trkpt>
      <trkpt lat="41.945958" lon="13.728305">
        <ele>1319.97</ele>
      </trkpt>
      <trkpt lat="41.945984" lon="13.728251">
        <ele>1320.27</ele>
      </trkpt>
      <trkpt lat="41.946101" lon="13.728125">
        <ele>1322.25</ele>
      </trkpt>
      <trkpt lat="41.946271" lon="13.727868">
        <ele>1322.99</ele>
      </trkpt>
      <trkpt lat="41.946357" lon="13.727661">
        <ele>1323.48</ele>
      </trkpt>
      <trkpt lat="41.946447" lon="13.727546">
        <ele>1324.87</ele>
      </trkpt>
      <trkpt lat="41.946638" lon="13.727334">
        <ele>1326.86</ele>
      </trkpt>
      <trkpt lat="41.946831" lon="13.727046">
        <ele>1328.26</ele>
      </trkpt>
      <trkpt lat="41.946907" lon="13.726934">
        <ele>1328.76</ele>
      </trkpt>
      <trkpt lat="41.947002" lon="13.726698">
        <ele>1328.63</ele>
      </trkpt>
      <trkpt lat="41.947083" lon="13.726591">
        <ele>1327.88</ele>
      </trkpt>
      <trkpt lat="41.947228" lon="13.726494">
        <ele>1326.74</ele>
      </trkpt>
      <trkpt lat="41.947858" lon="13.726337">
        <ele>1324.45</ele>
      </trkpt>
      <trkpt lat="41.948109" lon="13.726227">
        <ele>1321.17</ele>
      </trkpt>
      <trkpt lat="41.948428" lon="13.726048">
        <ele>1315.66</ele>
      </trkpt>
      <trkpt lat="41.948541" lon="13.726033">
        <ele>1314.88</ele>
      </trkpt>
      <trkpt lat="41.948649" lon="13.726031">
        <ele>1315.03</ele>
      </trkpt>
      <trkpt lat="41.948857" lon="13.725873">
        <ele>1313.67</ele>
      </trkpt>
      <trkpt lat="41.949076" lon="13.725786">
        <ele>1312.9</ele>
      </trkpt>
      <trkpt lat="41.949362" lon="13.725711">
        <ele>1312.78</ele>
      </trkpt>
      <trkpt lat="41.949493" lon="13.725612">
        <ele>1311.94</ele>
      </trkpt>
      <trkpt lat="41.949575" lon="13.725521">
        <ele>1311.05</ele>
      </trkpt>
      <trkpt lat="41.949672" lon="13.725438">
        <ele>1310.28</ele>
      </trkpt>
      <trkpt lat="41.949852" lon="13.725338">
        <ele>1310.79</ele>
      </trkpt>
      <trkpt lat="41.949936" lon="13.725234">
        <ele>1309.73</ele>
      </trkpt>
      <trkpt lat="41.950031" lon="13.725072">
        <ele>1308.7</ele>
      </trkpt>
      <trkpt lat="41.950137" lon="13.724968">
        <ele>1309.58</ele>
      </trkpt>
      <trkpt lat="41.95029" lon="13.724867">
        <ele>1312.37</ele>
      </trkpt>
      <trkpt lat="41.950482" lon="13.724571">
        <ele>1311.23</ele>
      </trkpt>
      <trkpt lat="41.95066" lon="13.724346">
        <ele>1310.13</ele>
      </trkpt>
      <trkpt lat="41.950853" lon="13.724096">
        <ele>1312.51</ele>
      </trkpt>
      <trkpt lat="41.950969" lon="13.723898">
        <ele>1313.36</ele>
      </trkpt>
      <trkpt lat="41.951228" lon="13.723598">
        <ele>1314.07</ele>
      </trkpt>
      <trkpt lat="41.951445" lon="13.723281">
        <ele>1312.76</ele>
      </trkpt>
      <trkpt lat="41.951567" lon="13.723077">
        <ele>1311.53</ele>
      </trkpt>
      <trkpt lat="41.951721" lon="13.722755">
        <ele>1309.8</ele>
      </trkpt>
      <trkpt lat="41.95186" lon="13.722505">
        <ele>1308.25</ele>
      </trkpt>
      <trkpt lat="41.952142" lon="13.721975">
        <ele>1301.82</ele>
      </trkpt>
      <trkpt lat="41.952303" lon="13.721704">
        <ele>1298.7</ele>
      </trkpt>
      <trkpt lat="41.952449" lon="13.721494">
        <ele>1296.9</ele>
      </trkpt>
      <trkpt lat="41.952594" lon="13.721392">
        <ele>1295.43</ele>
      </trkpt>
      <trkpt lat="41.952734" lon="13.721401">
        <ele>1292.25</ele>
      </trkpt>
      <trkpt lat="41.95287" lon="13.721433">
        <ele>1288.88</ele>
      </trkpt>
      <trkpt lat="41.953048" lon="13.721444">
        <ele>1285.4</ele>
      </trkpt>
      <trkpt lat="41.953353" lon="13.721382">
        <ele>1283.27</ele>
      </trkpt>
      <trkpt lat="41.953598" lon="13.721324">
        <ele>1284.67</ele>
      </trkpt>
      <trkpt lat="41.953949" lon="13.721206">
        <ele>1289.61</ele>
      </trkpt>
      <trkpt lat="41.954053" lon="13.721218">
        <ele>1291.37</ele>
      </trkpt>
      <trkpt lat="41.95418" lon="13.721328">
        <ele>1294</ele>
      </trkpt>
      <trkpt lat="41.954292" lon="13.721382">
        <ele>1295.49</ele>
      </trkpt>
      <trkpt lat="41.954364" lon="13.72135">
        <ele>1296</ele>
      </trkpt>
      <trkpt lat="41.954446" lon="13.721229">
        <ele>1295.04</ele>
      </trkpt>
      <trkpt lat="41.954564" lon="13.720939">
        <ele>1293.91</ele>
      </trkpt>
      <trkpt lat="41.954633" lon="13.720931">
        <ele>1292.61</ele>
      </trkpt>
      <trkpt lat="41.954713" lon="13.720988">
        <ele>1291.34</ele>
      </trkpt>
      <trkpt lat="41.95514" lon="13.720895">
        <ele>1283.97</ele>
      </trkpt>
      <trkpt lat="41.95532" lon="13.720851">
        <ele>1280.85</ele>
      </trkpt>
      <trkpt lat="41.955605" lon="13.720749">
        <ele>1275.75</ele>
      </trkpt>
      <trkpt lat="41.955903" lon="13.720695">
        <ele>1272.16</ele>
      </trkpt>
      <trkpt lat="41.956071" lon="13.720644">
        <ele>1271.07</ele>
      </trkpt>
      <trkpt lat="41.956279" lon="13.720486">
        <ele>1270.41</ele>
      </trkpt>
      <trkpt lat="41.956351" lon="13.720482">
        <ele>1269.07</ele>
      </trkpt>
      <trkpt lat="41.956474" lon="13.720588">
        <ele>1265.69</ele>
      </trkpt>
      <trkpt lat="41.956613" lon="13.720741">
        <ele>1261.73</ele>
      </trkpt>
      <trkpt lat="41.956698" lon="13.72076">
        <ele>1260.81</ele>
      </trkpt>
      <trkpt lat="41.95678" lon="13.72073">
        <ele>1260.14</ele>
      </trkpt>
      <trkpt lat="41.956876" lon="13.720682">
        <ele>1258.73</ele>
      </trkpt>
      <trkpt lat="41.956979" lon="13.720615">
        <ele>1257.15</ele>
      </trkpt>
      <trkpt lat="41.957133" lon="13.72055">
        <ele>1255.45</ele>
      </trkpt>
      <trkpt lat="41.957249" lon="13.720544">
        <ele>1253.94</ele>
      </trkpt>
      <trkpt lat="41.957418" lon="13.72056">
        <ele>1252.08</ele>
      </trkpt>
      <trkpt lat="41.957462" lon="13.720533">
        <ele>1251.89</ele>
      </trkpt>
      <trkpt lat="41.957552" lon="13.720454">
        <ele>1250.69</ele>
      </trkpt>
      <trkpt lat="41.957736" lon="13.720345">
        <ele>1248.57</ele>
      </trkpt>
      <trkpt lat="41.957868" lon="13.720202">
        <ele>1246.5</ele>
      </trkpt>
      <trkpt lat="41.958101" lon="13.719978">
        <ele>1243.59</ele>
      </trkpt>
      <trkpt lat="41.958284" lon="13.719724">
        <ele>1240.45</ele>
      </trkpt>
      <trkpt lat="41.958477" lon="13.719398">
        <ele>1237.71</ele>
      </trkpt>
      <trkpt lat="41.95858" lon="13.719322">
        <ele>1235.5</ele>
      </trkpt>
      <trkpt lat="41.958698" lon="13.719188">
        <ele>1233.94</ele>
      </trkpt>
      <trkpt lat="41.95884" lon="13.718973">
        <ele>1231.22</ele>
      </trkpt>
      <trkpt lat="41.958894" lon="13.718874">
        <ele>1229.96</ele>
      </trkpt>
      <trkpt lat="41.958952" lon="13.718707">
        <ele>1227.57</ele>
      </trkpt>
      <trkpt lat="41.959112" lon="13.71815">
        <ele>1222.77</ele>
      </trkpt>
      <trkpt lat="41.95917" lon="13.718072">
        <ele>1221.86</ele>
      </trkpt>
      <trkpt lat="41.959411" lon="13.717942">
        <ele>1220.09</ele>
      </trkpt>
      <trkpt lat="41.959731" lon="13.717812">
        <ele>1218.98</ele>
      </trkpt>
      <trkpt lat="41.959985" lon="13.717757">
        <ele>1220.64</ele>
      </trkpt>
      <trkpt lat="41.960616" lon="13.717695">
        <ele>1230.38</ele>
      </trkpt>
      <trkpt lat="41.960725" lon="13.717758">
        <ele>1232.87</ele>
      </trkpt>
      <trkpt lat="41.960824" lon="13.717887">
        <ele>1236.15</ele>
      </trkpt>
      <trkpt lat="41.960926" lon="13.718105">
        <ele>1241.04</ele>
      </trkpt>
      <trkpt lat="41.960968" lon="13.718147">
        <ele>1242.2</ele>
      </trkpt>
      <trkpt lat="41.961331" lon="13.718252">
        <ele>1247.34</ele>
      </trkpt>
      <trkpt lat="41.961475" lon="13.718332">
        <ele>1250.9</ele>
      </trkpt>
      <trkpt lat="41.961656" lon="13.71845">
        <ele>1256.52</ele>
      </trkpt>
      <trkpt lat="41.961746" lon="13.718457">
        <ele>1258.51</ele>
      </trkpt>
      <trkpt lat="41.962095" lon="13.718354">
        <ele>1259.91</ele>
      </trkpt>
      <trkpt lat="41.962346" lon="13.718311">
        <ele>1261.59</ele>
      </trkpt>
      <trkpt lat="41.962701" lon="13.718137">
        <ele>1262.83</ele>
      </trkpt>
      <trkpt lat="41.962911" lon="13.718065">
        <ele>1263.76</ele>
      </trkpt>
      <trkpt lat="41.963102" lon="13.718035">
        <ele>1263.79</ele>
      </trkpt>
      <trkpt lat="41.963351" lon="13.718099">
        <ele>1265.48</ele>
      </trkpt>
      <trkpt lat="41.963505" lon="13.718169">
        <ele>1267.11</ele>
      </trkpt>
      <trkpt lat="41.96364" lon="13.718247">
        <ele>1268.5</ele>
      </trkpt>
      <trkpt lat="41.963766" lon="13.718241">
        <ele>1268.95</ele>
      </trkpt>
      <trkpt lat="41.963909" lon="13.71825">
        <ele>1269.54</ele>
      </trkpt>
      <trkpt lat="41.9639" lon="13.718226">
        <ele>1269.13</ele>
      </trkpt>
      <trkpt lat="41.963909" lon="13.71825">
        <ele>1269.54</ele>
      </trkpt>
      <trkpt lat="41.964261" lon="13.718436">
        <ele>1275.22</ele>
      </trkpt>
      <trkpt lat="41.964653" lon="13.71892">
        <ele>1288.91</ele>
      </trkpt>
      <trkpt lat="41.964722" lon="13.719097">
        <ele>1294.54</ele>
      </trkpt>
      <trkpt lat="41.964809" lon="13.719223">
        <ele>1296.78</ele>
      </trkpt>
      <trkpt lat="41.964969" lon="13.719381">
        <ele>1298.47</ele>
      </trkpt>
      <trkpt lat="41.965168" lon="13.719679">
        <ele>1300.83</ele>
      </trkpt>
      <trkpt lat="41.965314" lon="13.719845">
        <ele>1301.56</ele>
      </trkpt>
      <trkpt lat="41.965611" lon="13.71999">
        <ele>1301.91</ele>
      </trkpt>
      <trkpt lat="41.96577" lon="13.720041">
        <ele>1301.64</ele>
      </trkpt>
      <trkpt lat="41.965892" lon="13.719974">
        <ele>1300.9</ele>
      </trkpt>
      <trkpt lat="41.966161" lon="13.719717">
        <ele>1303.61</ele>
      </trkpt>
      <trkpt lat="41.966654" lon="13.719053">
        <ele>1307.98</ele>
      </trkpt>
      <trkpt lat="41.967017" lon="13.71849">
        <ele>1315.18</ele>
      </trkpt>
      <trkpt lat="41.967232" lon="13.718287">
        <ele>1316.22</ele>
      </trkpt>
      <trkpt lat="41.967446" lon="13.71805">
        <ele>1315.99</ele>
      </trkpt>
      <trkpt lat="41.967677" lon="13.717954">
        <ele>1308.34</ele>
      </trkpt>
      <trkpt lat="41.967793" lon="13.717938">
        <ele>1306.75</ele>
      </trkpt>
      <trkpt lat="41.967848" lon="13.717998">
        <ele>1307.53</ele>
      </trkpt>
      <trkpt lat="41.967948" lon="13.718276">
        <ele>1311.43</ele>
      </trkpt>
      <trkpt lat="41.967986" lon="13.71844">
        <ele>1314.14</ele>
      </trkpt>
      <trkpt lat="41.96802" lon="13.718475">
        <ele>1315.18</ele>
      </trkpt>
      <trkpt lat="41.968044" lon="13.7185">
        <ele>1315.93</ele>
      </trkpt>
      <trkpt lat="41.96812" lon="13.718461">
        <ele>1316.59</ele>
      </trkpt>
      <trkpt lat="41.968222" lon="13.718308">
        <ele>1316.5</ele>
      </trkpt>
      <trkpt lat="41.968427" lon="13.71797">
        <ele>1316.78</ele>
      </trkpt>
      <trkpt lat="41.968767" lon="13.717334">
        <ele>1311.43</ele>
      </trkpt>
      <trkpt lat="41.969107" lon="13.716698">
        <ele>1311.1</ele>
      </trkpt>
      <trkpt lat="41.96953" lon="13.71584">
        <ele>1314.08</ele>
      </trkpt>
      <trkpt lat="41.970052" lon="13.715047">
        <ele>1316.43</ele>
      </trkpt>
      <trkpt lat="41.970458" lon="13.714396">
        <ele>1317.89</ele>
      </trkpt>
      <trkpt lat="41.970587" lon="13.714248">
        <ele>1318.9</ele>
      </trkpt>
      <trkpt lat="41.971269" lon="13.713745">
        <ele>1322.75</ele>
      </trkpt>
      <trkpt lat="41.971419" lon="13.713541">
        <ele>1320.53</ele>
      </trkpt>
      <trkpt lat="41.971718" lon="13.713141">
        <ele>1307.97</ele>
      </trkpt>
      <trkpt lat="41.971867" lon="13.712946">
        <ele>1303.73</ele>
      </trkpt>
      <trkpt lat="41.972055" lon="13.71272">
        <ele>1300.87</ele>
      </trkpt>
      <trkpt lat="41.972242" lon="13.712495">
        <ele>1300.09</ele>
      </trkpt>
      <trkpt lat="41.973343" lon="13.710993">
        <ele>1299.14</ele>
      </trkpt>
      <trkpt lat="41.974093" lon="13.709877">
        <ele>1299.17</ele>
      </trkpt>
      <trkpt lat="41.97429" lon="13.709614">
        <ele>1300.1</ele>
      </trkpt>
      <trkpt lat="41.974487" lon="13.709351">
        <ele>1303.09</ele>
      </trkpt>
      <trkpt lat="41.974585" lon="13.709127">
        <ele>1303.96</ele>
      </trkpt>
      <trkpt lat="41.974663" lon="13.708827">
        <ele>1303.07</ele>
      </trkpt>
      <trkpt lat="41.974889" lon="13.707688">
        <ele>1293.22</ele>
      </trkpt>
      <trkpt lat="41.974991" lon="13.70736">
        <ele>1291.86</ele>
      </trkpt>
      <trkpt lat="41.975002" lon="13.707216">
        <ele>1290.57</ele>
      </trkpt>
      <trkpt lat="41.974825" lon="13.706699">
        <ele>1283.75</ele>
      </trkpt>
      <trkpt lat="41.974909" lon="13.706543">
        <ele>1282.76</ele>
      </trkpt>
      <trkpt lat="41.974969" lon="13.706313">
        <ele>1280.23</ele>
      </trkpt>
      <trkpt lat="41.975088" lon="13.705594">
        <ele>1272.13</ele>
      </trkpt>
      <trkpt lat="41.975122" lon="13.704587">
        <ele>1274.36</ele>
      </trkpt>
      <trkpt lat="41.975126" lon="13.704174">
        <ele>1272.07</ele>
      </trkpt>
      <trkpt lat="41.97524" lon="13.704122">
        <ele>1272.83</ele>
      </trkpt>
      <trkpt lat="41.975756" lon="13.704047">
        <ele>1278</ele>
      </trkpt>
      <trkpt lat="41.975838" lon="13.704035">
        <ele>1278.82</ele>
      </trkpt>
      <trkpt lat="41.975919" lon="13.703994">
        <ele>1279.6</ele>
      </trkpt>
      <trkpt lat="41.975978" lon="13.703891">
        <ele>1279.16</ele>
      </trkpt>
      <trkpt lat="41.976106" lon="13.703541">
        <ele>1277.05</ele>
      </trkpt>
      <trkpt lat="41.976492" lon="13.70249">
        <ele>1264.15</ele>
      </trkpt>
      <trkpt lat="41.976619" lon="13.70224">
        <ele>1267.74</ele>
      </trkpt>
      <trkpt lat="41.976875" lon="13.701739">
        <ele>1270.1</ele>
      </trkpt>
      <trkpt lat="41.976931" lon="13.701589">
        <ele>1270.15</ele>
      </trkpt>
      <trkpt lat="41.976929" lon="13.701471">
        <ele>1269.45</ele>
      </trkpt>
      <trkpt lat="41.976889" lon="13.70137">
        <ele>1268.56</ele>
      </trkpt>
      <trkpt lat="41.976799" lon="13.701306">
        <ele>1267.48</ele>
      </trkpt>
      <trkpt lat="41.976556" lon="13.701246">
        <ele>1263.94</ele>
      </trkpt>
      <trkpt lat="41.976453" lon="13.701174">
        <ele>1262.59</ele>
      </trkpt>
      <trkpt lat="41.976359" lon="13.701042">
        <ele>1261.05</ele>
      </trkpt>
      <trkpt lat="41.976102" lon="13.700415">
        <ele>1254.84</ele>
      </trkpt>
      <trkpt lat="41.976061" lon="13.700173">
        <ele>1253.53</ele>
      </trkpt>
      <trkpt lat="41.976077" lon="13.699819">
        <ele>1252.83</ele>
      </trkpt>
      <trkpt lat="41.976093" lon="13.699465">
        <ele>1249.66</ele>
      </trkpt>
      <trkpt lat="41.976194" lon="13.699286">
        <ele>1247.9</ele>
      </trkpt>
      <trkpt lat="41.976444" lon="13.699014">
        <ele>1244.71</ele>
      </trkpt>
      <trkpt lat="41.976603" lon="13.69881">
        <ele>1241.64</ele>
      </trkpt>
      <trkpt lat="41.976732" lon="13.698542">
        <ele>1238.15</ele>
      </trkpt>
      <trkpt lat="41.976763" lon="13.698349">
        <ele>1237.58</ele>
      </trkpt>
      <trkpt lat="41.976795" lon="13.69792">
        <ele>1238.36</ele>
      </trkpt>
      <trkpt lat="41.976854" lon="13.69775">
        <ele>1237.96</ele>
      </trkpt>
      <trkpt lat="41.977162" lon="13.697319">
        <ele>1233.11</ele>
      </trkpt>
      <trkpt lat="41.977695" lon="13.695428">
        <ele>1223.12</ele>
      </trkpt>
      <trkpt lat="41.977733" lon="13.695237">
        <ele>1222.88</ele>
      </trkpt>
      <trkpt lat="41.977717" lon="13.695124">
        <ele>1222.08</ele>
      </trkpt>
      <trkpt lat="41.977688" lon="13.695021">
        <ele>1219.84</ele>
      </trkpt>
      <trkpt lat="41.977727" lon="13.694963">
        <ele>1218.5</ele>
      </trkpt>
      <trkpt lat="41.97777" lon="13.694945">
        <ele>1218.08</ele>
      </trkpt>
      <trkpt lat="41.977833" lon="13.69494">
        <ele>1217.97</ele>
      </trkpt>
      <trkpt lat="41.978199" lon="13.694851">
        <ele>1216.22</ele>
      </trkpt>
      <trkpt lat="41.978624" lon="13.694663">
        <ele>1211.57</ele>
      </trkpt>
      <trkpt lat="41.978673" lon="13.694578">
        <ele>1210.65</ele>
      </trkpt>
      <trkpt lat="41.978773" lon="13.694601">
        <ele>1211</ele>
      </trkpt>
      <trkpt lat="41.979277" lon="13.695034">
        <ele>1201.75</ele>
      </trkpt>
      <trkpt lat="41.979534" lon="13.69528">
        <ele>1201.1</ele>
      </trkpt>
      <trkpt lat="41.97979" lon="13.695525">
        <ele>1203.05</ele>
      </trkpt>
      <trkpt lat="41.979909" lon="13.695713">
        <ele>1202.2</ele>
      </trkpt>
      <trkpt lat="41.979973" lon="13.696005">
        <ele>1200.59</ele>
      </trkpt>
      <trkpt lat="41.980051" lon="13.696134">
        <ele>1198.4</ele>
      </trkpt>
      <trkpt lat="41.980181" lon="13.696187">
        <ele>1193.37</ele>
      </trkpt>
      <trkpt lat="41.980547" lon="13.696098">
        <ele>1183.63</ele>
      </trkpt>
      <trkpt lat="41.980825" lon="13.696014">
        <ele>1179.4</ele>
      </trkpt>
      <trkpt lat="41.981103" lon="13.69593">
        <ele>1180.9</ele>
      </trkpt>
      <trkpt lat="41.981448" lon="13.695809">
        <ele>1186.57</ele>
      </trkpt>
      <trkpt lat="41.98151" lon="13.695852">
        <ele>1187.39</ele>
      </trkpt>
      <trkpt lat="41.981518" lon="13.695858">
        <ele>1187.49</ele>
      </trkpt>
      <trkpt lat="41.981547" lon="13.696004">
        <ele>1186.55</ele>
      </trkpt>
      <trkpt lat="41.981532" lon="13.696293">
        <ele>1183.7</ele>
      </trkpt>
      <trkpt lat="41.981584" lon="13.696391">
        <ele>1184.27</ele>
      </trkpt>
      <trkpt lat="41.981667" lon="13.69642">
        <ele>1186.05</ele>
      </trkpt>
      <trkpt lat="41.981782" lon="13.696387">
        <ele>1188.49</ele>
      </trkpt>
      <trkpt lat="41.981891" lon="13.696408">
        <ele>1190.08</ele>
      </trkpt>
      <trkpt lat="41.982197" lon="13.696568">
        <ele>1191.54</ele>
      </trkpt>
      <trkpt lat="41.982279" lon="13.696558">
        <ele>1191.74</ele>
      </trkpt>
      <trkpt lat="41.982527" lon="13.696469">
        <ele>1190.22</ele>
      </trkpt>
      <trkpt lat="41.982774" lon="13.69638">
        <ele>1185.01</ele>
      </trkpt>
      <trkpt lat="41.982876" lon="13.696389">
        <ele>1184.83</ele>
      </trkpt>
      <trkpt lat="41.983099" lon="13.696454">
        <ele>1184.94</ele>
      </trkpt>
      <trkpt lat="41.983204" lon="13.696441">
        <ele>1183.75</ele>
      </trkpt>
      <trkpt lat="41.983279" lon="13.696379">
        <ele>1182.64</ele>
      </trkpt>
      <trkpt lat="41.983812" lon="13.695798">
        <ele>1176.33</ele>
      </trkpt>
      <trkpt lat="41.984081" lon="13.695597">
        <ele>1170.93</ele>
      </trkpt>
      <trkpt lat="41.984223" lon="13.695412">
        <ele>1168.42</ele>
      </trkpt>
      <trkpt lat="41.984426" lon="13.695231">
        <ele>1164.88</ele>
      </trkpt>
      <trkpt lat="41.984495" lon="13.695175">
        <ele>1163.6</ele>
      </trkpt>
      <trkpt lat="41.984686" lon="13.695077">
        <ele>1161.16</ele>
      </trkpt>
      <trkpt lat="41.984846" lon="13.694902">
        <ele>1157.68</ele>
      </trkpt>
      <trkpt lat="41.985038" lon="13.694842">
        <ele>1154.74</ele>
      </trkpt>
      <trkpt lat="41.985198" lon="13.694755">
        <ele>1152.62</ele>
      </trkpt>
      <trkpt lat="41.985527" lon="13.694714">
        <ele>1147.52</ele>
      </trkpt>
      <trkpt lat="41.985757" lon="13.69464">
        <ele>1144.06</ele>
      </trkpt>
      <trkpt lat="41.985942" lon="13.694422">
        <ele>1139.01</ele>
      </trkpt>
      <trkpt lat="41.986036" lon="13.694359">
        <ele>1137.61</ele>
      </trkpt>
      <trkpt lat="41.986135" lon="13.694354">
        <ele>1136.17</ele>
      </trkpt>
      <trkpt lat="41.986422" lon="13.694463">
        <ele>1132.74</ele>
      </trkpt>
      <trkpt lat="41.986477" lon="13.694516">
        <ele>1132.18</ele>
      </trkpt>
      <trkpt lat="41.986551" lon="13.694761">
        <ele>1133.17</ele>
      </trkpt>
      <trkpt lat="41.986731" lon="13.695131">
        <ele>1128.59</ele>
      </trkpt>
      <trkpt lat="41.986809" lon="13.69519">
        <ele>1127.03</ele>
      </trkpt>
      <trkpt lat="41.986836" lon="13.695245">
        <ele>1126.28</ele>
      </trkpt>
      <trkpt lat="41.986837" lon="13.695582">
        <ele>1123.59</ele>
      </trkpt>
      <trkpt lat="41.986871" lon="13.695729">
        <ele>1121.92</ele>
      </trkpt>
      <trkpt lat="41.986903" lon="13.69607">
        <ele>1120.45</ele>
      </trkpt>
      <trkpt lat="41.986942" lon="13.696247">
        <ele>1118.79</ele>
      </trkpt>
      <trkpt lat="41.98708" lon="13.696575">
        <ele>1117.11</ele>
      </trkpt>
      <trkpt lat="41.987136" lon="13.696707">
        <ele>1116.17</ele>
      </trkpt>
      <trkpt lat="41.987189" lon="13.696833">
        <ele>1115.26</ele>
      </trkpt>
      <trkpt lat="41.987286" lon="13.696945">
        <ele>1114.51</ele>
      </trkpt>
      <trkpt lat="41.987527" lon="13.697063">
        <ele>1112.95</ele>
      </trkpt>
      <trkpt lat="41.987568" lon="13.6971">
        <ele>1112.85</ele>
      </trkpt>
      <trkpt lat="41.987598" lon="13.697178">
        <ele>1113.07</ele>
      </trkpt>
      <trkpt lat="41.98757" lon="13.697362">
        <ele>1114.28</ele>
      </trkpt>
      <trkpt lat="41.987565" lon="13.697446">
        <ele>1114.32</ele>
      </trkpt>
      <trkpt lat="41.987607" lon="13.697493">
        <ele>1114</ele>
      </trkpt>
      <trkpt lat="41.987675" lon="13.697477">
        <ele>1113.46</ele>
      </trkpt>
      <trkpt lat="41.987801" lon="13.697371">
        <ele>1112.48</ele>
      </trkpt>
      <trkpt lat="41.987884" lon="13.697348">
        <ele>1111.82</ele>
      </trkpt>
      <trkpt lat="41.987969" lon="13.697341">
        <ele>1111.16</ele>
      </trkpt>
      <trkpt lat="41.988139" lon="13.697475">
        <ele>1110.61</ele>
      </trkpt>
      <trkpt lat="41.988438" lon="13.697677">
        <ele>1106.99</ele>
      </trkpt>
      <trkpt lat="41.988492" lon="13.697745">
        <ele>1106.14</ele>
      </trkpt>
      <trkpt lat="41.988653" lon="13.697986">
        <ele>1105.45</ele>
      </trkpt>
      <trkpt lat="41.988737" lon="13.698061">
        <ele>1105.45</ele>
      </trkpt>
      <trkpt lat="41.989059" lon="13.698386">
        <ele>1107.8</ele>
      </trkpt>
      <trkpt lat="41.989151" lon="13.698497">
        <ele>1111.18</ele>
      </trkpt>
      <trkpt lat="41.989287" lon="13.698708">
        <ele>1116.99</ele>
      </trkpt>
      <trkpt lat="41.989288" lon="13.698705">
        <ele>1116.94</ele>
      </trkpt>
      <trkpt lat="41.989304" lon="13.699085">
        <ele>1120</ele>
      </trkpt>
      <trkpt lat="41.989317" lon="13.699243">
        <ele>1120</ele>
      </trkpt>
      <trkpt lat="41.989377" lon="13.699173">
        <ele>1120</ele>
      </trkpt>
      <trkpt lat="41.989462" lon="13.699129">
        <ele>1120.52</ele>
      </trkpt>
      <trkpt lat="41.989651" lon="13.699171">
        <ele>1122</ele>
      </trkpt>
      <trkpt lat="41.989693" lon="13.699165">
        <ele>1122.33</ele>
      </trkpt>
      <trkpt lat="41.989746" lon="13.699141">
        <ele>1122.74</ele>
      </trkpt>
      <trkpt lat="41.989814" lon="13.699132">
        <ele>1123.27</ele>
      </trkpt>
      <trkpt lat="41.98993" lon="13.699137">
        <ele>1124.18</ele>
      </trkpt>
      <trkpt lat="41.990078" lon="13.699165">
        <ele>1125</ele>
      </trkpt>
      <trkpt lat="41.990379" lon="13.699077">
        <ele>1126</ele>
      </trkpt>
      <trkpt lat="41.990497" lon="13.699014">
        <ele>1126.61</ele>
      </trkpt>
      <trkpt lat="41.990556" lon="13.698968">
        <ele>1127</ele>
      </trkpt>
      <trkpt lat="41.990698" lon="13.698799">
        <ele>1127</ele>
      </trkpt>
      <trkpt lat="41.990807" lon="13.698629">
        <ele>1126.42</ele>
      </trkpt>
      <trkpt lat="41.990862" lon="13.698565">
        <ele>1126.03</ele>
      </trkpt>
      <trkpt lat="41.990931" lon="13.69852">
        <ele>1126</ele>
      </trkpt>
      <trkpt lat="41.990993" lon="13.698519">
        <ele>1125.9</ele>
      </trkpt>
      <trkpt lat="41.991063" lon="13.698552">
        <ele>1125.99</ele>
      </trkpt>
      <trkpt lat="41.991213" lon="13.698717">
        <ele>1125.99</ele>
      </trkpt>
      <trkpt lat="41.99131" lon="13.698782">
        <ele>1126</ele>
      </trkpt>
      <trkpt lat="41.991468" lon="13.698907">
        <ele>1126.04</ele>
      </trkpt>
      <trkpt lat="41.991518" lon="13.698932">
        <ele>1126.08</ele>
      </trkpt>
      <trkpt lat="41.991591" lon="13.698947">
        <ele>1126</ele>
      </trkpt>
      <trkpt lat="41.991756" lon="13.698908">
        <ele>1125.57</ele>
      </trkpt>
      <trkpt lat="41.991803" lon="13.698908">
        <ele>1125.22</ele>
      </trkpt>
      <trkpt lat="41.991859" lon="13.698929">
        <ele>1125.18</ele>
      </trkpt>
      <trkpt lat="41.992066" lon="13.699096">
        <ele>1126</ele>
      </trkpt>
      <trkpt lat="41.992205" lon="13.699144">
        <ele>1126</ele>
      </trkpt>
      <trkpt lat="41.992552" lon="13.69912">
        <ele>1125.31</ele>
      </trkpt>
      <trkpt lat="41.99264" lon="13.699086">
        <ele>1124.96</ele>
      </trkpt>
      <trkpt lat="41.992694" lon="13.69905">
        <ele>1125</ele>
      </trkpt>
      <trkpt lat="41.992946" lon="13.698755">
        <ele>1121.46</ele>
      </trkpt>
      <trkpt lat="41.993072" lon="13.698622">
        <ele>1119.48</ele>
      </trkpt>
      <trkpt lat="41.99329" lon="13.69835">
        <ele>1115.71</ele>
      </trkpt>
      <trkpt lat="41.99337" lon="13.698261">
        <ele>1114.43</ele>
      </trkpt>
      <trkpt lat="41.993454" lon="13.698232">
        <ele>1112.63</ele>
      </trkpt>
      <trkpt lat="41.9936" lon="13.698143">
        <ele>1109.69</ele>
      </trkpt>
      <trkpt lat="41.993679" lon="13.698079">
        <ele>1108.87</ele>
      </trkpt>
      <trkpt lat="41.993807" lon="13.697999">
        <ele>1107.1</ele>
      </trkpt>
      <trkpt lat="41.993843" lon="13.69795">
        <ele>1106.83</ele>
      </trkpt>
      <trkpt lat="41.993885" lon="13.697816">
        <ele>1106.77</ele>
      </trkpt>
      <trkpt lat="41.993915" lon="13.697757">
        <ele>1106.3</ele>
      </trkpt>
      <trkpt lat="41.993962" lon="13.697717">
        <ele>1105.56</ele>
      </trkpt>
      <trkpt lat="41.99404" lon="13.697679">
        <ele>1104.67</ele>
      </trkpt>
      <trkpt lat="41.994281" lon="13.697693">
        <ele>1101.78</ele>
      </trkpt>
      <trkpt lat="41.994405" lon="13.697714">
        <ele>1101.42</ele>
      </trkpt>
      <trkpt lat="41.994495" lon="13.697709">
        <ele>1102.06</ele>
      </trkpt>
      <trkpt lat="41.99458" lon="13.697718">
        <ele>1102.91</ele>
      </trkpt>
      <trkpt lat="41.99455" lon="13.697894">
        <ele>1104.97</ele>
      </trkpt>
      <trkpt lat="41.994474" lon="13.698022">
        <ele>1105.29</ele>
      </trkpt>
      <trkpt lat="41.994298" lon="13.698208">
        <ele>1105.33</ele>
      </trkpt>
      <trkpt lat="41.99371" lon="13.698901">
        <ele>1108.26</ele>
      </trkpt>
      <trkpt lat="41.993506" lon="13.699172">
        <ele>1109.94</ele>
      </trkpt>
      <trkpt lat="41.993063" lon="13.700023">
        <ele>1114.83</ele>
      </trkpt>
      <trkpt lat="41.993025" lon="13.700076">
        <ele>1115.03</ele>
      </trkpt>
      <trkpt lat="41.992888" lon="13.700223">
        <ele>1116.1</ele>
      </trkpt>
      <trkpt lat="41.992781" lon="13.70037">
        <ele>1117.35</ele>
      </trkpt>
      <trkpt lat="41.992481" lon="13.700834">
        <ele>1122.65</ele>
      </trkpt>
      <trkpt lat="41.992332" lon="13.701043">
        <ele>1124.38</ele>
      </trkpt>
      <trkpt lat="41.992187" lon="13.701307">
        <ele>1125.78</ele>
      </trkpt>
      <trkpt lat="41.991939" lon="13.701761">
        <ele>1128.19</ele>
      </trkpt>
      <trkpt lat="41.991815" lon="13.701919">
        <ele>1128.46</ele>
      </trkpt>
      <trkpt lat="41.991756" lon="13.702066">
        <ele>1129.08</ele>
      </trkpt>
      <trkpt lat="41.991699" lon="13.702323">
        <ele>1129.96</ele>
      </trkpt>
      <trkpt lat="41.991664" lon="13.702431">
        <ele>1130.28</ele>
      </trkpt>
      <trkpt lat="41.991603" lon="13.702547">
        <ele>1130.75</ele>
      </trkpt>
      <trkpt lat="41.991031" lon="13.703185">
        <ele>1132.93</ele>
      </trkpt>
      <trkpt lat="41.99092" lon="13.703366">
        <ele>1134.96</ele>
      </trkpt>
      <trkpt lat="41.990539" lon="13.704159">
        <ele>1140.55</ele>
      </trkpt>
      <trkpt lat="41.990396" lon="13.704419">
        <ele>1140.83</ele>
      </trkpt>
      <trkpt lat="41.990111" lon="13.704941">
        <ele>1137.95</ele>
      </trkpt>
      <trkpt lat="41.989861" lon="13.705523">
        <ele>1135</ele>
      </trkpt>
      <trkpt lat="41.989756" lon="13.705661">
        <ele>1135</ele>
      </trkpt>
      <trkpt lat="41.989515" lon="13.706034">
        <ele>1135</ele>
      </trkpt>
      <trkpt lat="41.989374" lon="13.706351">
        <ele>1135</ele>
      </trkpt>
      <trkpt lat="41.989254" lon="13.706586">
        <ele>1135</ele>
      </trkpt>
      <trkpt lat="41.988506" lon="13.707664">
        <ele>1135.04</ele>
      </trkpt>
      <trkpt lat="41.988284" lon="13.707982">
        <ele>1137.06</ele>
      </trkpt>
      <trkpt lat="41.988132" lon="13.708273">
        <ele>1138.63</ele>
      </trkpt>
      <trkpt lat="41.987815" lon="13.709064">
        <ele>1142.22</ele>
      </trkpt>
      <trkpt lat="41.987544" lon="13.70948">
        <ele>1146.05</ele>
      </trkpt>
      <trkpt lat="41.987374" lon="13.709627">
        <ele>1147.25</ele>
      </trkpt>
      <trkpt lat="41.987067" lon="13.709856">
        <ele>1148.77</ele>
      </trkpt>
      <trkpt lat="41.986941" lon="13.709986">
        <ele>1149.57</ele>
      </trkpt>
      <trkpt lat="41.986693" lon="13.710322">
        <ele>1151.93</ele>
      </trkpt>
      <trkpt lat="41.986645" lon="13.710483">
        <ele>1153.36</ele>
      </trkpt>
      <trkpt lat="41.986637" lon="13.710658">
        <ele>1154</ele>
      </trkpt>
      <trkpt lat="41.986664" lon="13.71089">
        <ele>1153.27</ele>
      </trkpt>
      <trkpt lat="41.986651" lon="13.711015">
        <ele>1152.32</ele>
      </trkpt>
      <trkpt lat="41.986603" lon="13.711187">
        <ele>1151.24</ele>
      </trkpt>
      <trkpt lat="41.98651" lon="13.711611">
        <ele>1149.47</ele>
      </trkpt>
      <trkpt lat="41.98651" lon="13.711704">
        <ele>1148.71</ele>
      </trkpt>
      <trkpt lat="41.986632" lon="13.71214">
        <ele>1146.78</ele>
      </trkpt>
      <trkpt lat="41.98666" lon="13.712324">
        <ele>1145.57</ele>
      </trkpt>
      <trkpt lat="41.986793" lon="13.712532">
        <ele>1146.1</ele>
      </trkpt>
      <trkpt lat="41.986882" lon="13.712719">
        <ele>1146.34</ele>
      </trkpt>
      <trkpt lat="41.986918" lon="13.712854">
        <ele>1146.62</ele>
      </trkpt>
      <trkpt lat="41.986927" lon="13.71302">
        <ele>1146.76</ele>
      </trkpt>
      <trkpt lat="41.986901" lon="13.713632">
        <ele>1147.48</ele>
      </trkpt>
      <trkpt lat="41.986854" lon="13.713816">
        <ele>1147.76</ele>
      </trkpt>
      <trkpt lat="41.986475" lon="13.714525">
        <ele>1150.85</ele>
      </trkpt>
      <trkpt lat="41.986552" lon="13.714537">
        <ele>1150.31</ele>
      </trkpt>
      <trkpt lat="41.986475" lon="13.714525">
        <ele>1150.85</ele>
      </trkpt>
      <trkpt lat="41.986442" lon="13.714584">
        <ele>1151.3</ele>
      </trkpt>
      <trkpt lat="41.986304" lon="13.71475">
        <ele>1153</ele>
      </trkpt>
      <trkpt lat="41.985936" lon="13.715027">
        <ele>1153</ele>
      </trkpt>
      <trkpt lat="41.985778" lon="13.715177">
        <ele>1153.46</ele>
      </trkpt>
      <trkpt lat="41.985546" lon="13.715491">
        <ele>1153.94</ele>
      </trkpt>
      <trkpt lat="41.983915" lon="13.71758">
        <ele>1160.62</ele>
      </trkpt>
      <trkpt lat="41.983668" lon="13.717853">
        <ele>1162.21</ele>
      </trkpt>
      <trkpt lat="41.982722" lon="13.718692">
        <ele>1164</ele>
      </trkpt>
      <trkpt lat="41.982212" lon="13.719099">
        <ele>1165</ele>
      </trkpt>
      <trkpt lat="41.981692" lon="13.719434">
        <ele>1166.16</ele>
      </trkpt>
      <trkpt lat="41.980884" lon="13.719902">
        <ele>1168</ele>
      </trkpt>
      <trkpt lat="41.980585" lon="13.720059">
        <ele>1169</ele>
      </trkpt>
      <trkpt lat="41.980523" lon="13.720076">
        <ele>1169</ele>
      </trkpt>
      <trkpt lat="41.979431" lon="13.720345">
        <ele>1172</ele>
      </trkpt>
      <trkpt lat="41.979163" lon="13.720439">
        <ele>1173.77</ele>
      </trkpt>
      <trkpt lat="41.978947" lon="13.720575">
        <ele>1174.02</ele>
      </trkpt>
      <trkpt lat="41.978769" lon="13.720741">
        <ele>1175.12</ele>
      </trkpt>
      <trkpt lat="41.978256" lon="13.721277">
        <ele>1179.23</ele>
      </trkpt>
      <trkpt lat="41.978127" lon="13.721395">
        <ele>1180.14</ele>
      </trkpt>
      <trkpt lat="41.978034" lon="13.721429">
        <ele>1180.87</ele>
      </trkpt>
      <trkpt lat="41.977923" lon="13.721414">
        <ele>1181.8</ele>
      </trkpt>
      <trkpt lat="41.977785" lon="13.721431">
        <ele>1183.62</ele>
      </trkpt>
      <trkpt lat="41.977652" lon="13.721511">
        <ele>1185.23</ele>
      </trkpt>
      <trkpt lat="41.977474" lon="13.721689">
        <ele>1186.98</ele>
      </trkpt>
      <trkpt lat="41.977255" lon="13.72201">
        <ele>1187.6</ele>
      </trkpt>
      <trkpt lat="41.97661" lon="13.723026">
        <ele>1184.28</ele>
      </trkpt>
      <trkpt lat="41.976516" lon="13.72314">
        <ele>1182.77</ele>
      </trkpt>
      <trkpt lat="41.976415" lon="13.723196">
        <ele>1181.6</ele>
      </trkpt>
      <trkpt lat="41.976128" lon="13.723237">
        <ele>1179.6</ele>
      </trkpt>
      <trkpt lat="41.976045" lon="13.723285">
        <ele>1178.88</ele>
      </trkpt>
      <trkpt lat="41.97598" lon="13.723372">
        <ele>1178.07</ele>
      </trkpt>
      <trkpt lat="41.975875" lon="13.723608">
        <ele>1177.08</ele>
      </trkpt>
      <trkpt lat="41.975799" lon="13.72366">
        <ele>1176.67</ele>
      </trkpt>
      <trkpt lat="41.975684" lon="13.723706">
        <ele>1175.52</ele>
      </trkpt>
      <trkpt lat="41.975627" lon="13.72377">
        <ele>1174.7</ele>
      </trkpt>
      <trkpt lat="41.975608" lon="13.723917">
        <ele>1173.77</ele>
      </trkpt>
      <trkpt lat="41.975585" lon="13.72441">
        <ele>1172.95</ele>
      </trkpt>
      <trkpt lat="41.975555" lon="13.724538">
        <ele>1172.56</ele>
      </trkpt>
      <trkpt lat="41.975488" lon="13.724633">
        <ele>1172.06</ele>
      </trkpt>
      <trkpt lat="41.975408" lon="13.724709">
        <ele>1170.78</ele>
      </trkpt>
      <trkpt lat="41.975315" lon="13.724705">
        <ele>1168.74</ele>
      </trkpt>
      <trkpt lat="41.975218" lon="13.724675">
        <ele>1167.21</ele>
      </trkpt>
      <trkpt lat="41.975013" lon="13.724557">
        <ele>1163.01</ele>
      </trkpt>
      <trkpt lat="41.974903" lon="13.72454">
        <ele>1161.62</ele>
      </trkpt>
      <trkpt lat="41.974697" lon="13.724612">
        <ele>1159.04</ele>
      </trkpt>
      <trkpt lat="41.974436" lon="13.724675">
        <ele>1155.51</ele>
      </trkpt>
      <trkpt lat="41.97408" lon="13.724727">
        <ele>1153.7</ele>
      </trkpt>
      <trkpt lat="41.973463" lon="13.724869">
        <ele>1150.64</ele>
      </trkpt>
      <trkpt lat="41.973296" lon="13.724965">
        <ele>1149.73</ele>
      </trkpt>
      <trkpt lat="41.972563" lon="13.725645">
        <ele>1143.13</ele>
      </trkpt>
      <trkpt lat="41.972375" lon="13.725792">
        <ele>1142.03</ele>
      </trkpt>
      <trkpt lat="41.972123" lon="13.725941">
        <ele>1140</ele>
      </trkpt>
      <trkpt lat="41.971917" lon="13.726053">
        <ele>1137.1</ele>
      </trkpt>
      <trkpt lat="41.971625" lon="13.72629">
        <ele>1133.94</ele>
      </trkpt>
      <trkpt lat="41.971451" lon="13.726401">
        <ele>1131.22</ele>
      </trkpt>
      <trkpt lat="41.971232" lon="13.726526">
        <ele>1126.96</ele>
      </trkpt>
      <trkpt lat="41.971105" lon="13.726606">
        <ele>1126.72</ele>
      </trkpt>
      <trkpt lat="41.971044" lon="13.726657">
        <ele>1126.18</ele>
      </trkpt>
      <trkpt lat="41.970995" lon="13.726697">
        <ele>1125.74</ele>
      </trkpt>
      <trkpt lat="41.970903" lon="13.726813">
        <ele>1124.18</ele>
      </trkpt>
      <trkpt lat="41.970806" lon="13.72696">
        <ele>1122.42</ele>
      </trkpt>
      <trkpt lat="41.970686" lon="13.727101">
        <ele>1121.42</ele>
      </trkpt>
      <trkpt lat="41.97057" lon="13.727201">
        <ele>1120.8</ele>
      </trkpt>
      <trkpt lat="41.970242" lon="13.727381">
        <ele>1119.92</ele>
      </trkpt>
      <trkpt lat="41.969979" lon="13.727573">
        <ele>1114.41</ele>
      </trkpt>
      <trkpt lat="41.969859" lon="13.72763">
        <ele>1112.69</ele>
      </trkpt>
      <trkpt lat="41.969605" lon="13.72766">
        <ele>1111.82</ele>
      </trkpt>
      <trkpt lat="41.969484" lon="13.72772">
        <ele>1110.87</ele>
      </trkpt>
      <trkpt lat="41.969409" lon="13.727795">
        <ele>1109.9</ele>
      </trkpt>
      <trkpt lat="41.969236" lon="13.728033">
        <ele>1106.77</ele>
      </trkpt>
      <trkpt lat="41.969059" lon="13.728224">
        <ele>1103.6</ele>
      </trkpt>
      <trkpt lat="41.968465" lon="13.728688">
        <ele>1099.74</ele>
      </trkpt>
      <trkpt lat="41.968355" lon="13.728823">
        <ele>1099.58</ele>
      </trkpt>
      <trkpt lat="41.968291" lon="13.728935">
        <ele>1099.42</ele>
      </trkpt>
      <trkpt lat="41.968252" lon="13.729062">
        <ele>1098.99</ele>
      </trkpt>
      <trkpt lat="41.968237" lon="13.729197">
        <ele>1098.32</ele>
      </trkpt>
      <trkpt lat="41.968248" lon="13.729278">
        <ele>1097.76</ele>
      </trkpt>
      <trkpt lat="41.968253" lon="13.729311">
        <ele>1097.54</ele>
      </trkpt>
      <trkpt lat="41.968551" lon="13.730044">
        <ele>1090.94</ele>
      </trkpt>
      <trkpt lat="41.96862" lon="13.730259">
        <ele>1089.15</ele>
      </trkpt>
      <trkpt lat="41.968807" lon="13.73106">
        <ele>1085.98</ele>
      </trkpt>
      <trkpt lat="41.968877" lon="13.731254">
        <ele>1084.87</ele>
      </trkpt>
      <trkpt lat="41.969085" lon="13.731691">
        <ele>1081.48</ele>
      </trkpt>
      <trkpt lat="41.969157" lon="13.731887">
        <ele>1083.31</ele>
      </trkpt>
      <trkpt lat="41.969179" lon="13.732007">
        <ele>1085.32</ele>
      </trkpt>
      <trkpt lat="41.969209" lon="13.732027">
        <ele>1086.16</ele>
      </trkpt>
      <trkpt lat="41.969237" lon="13.732073">
        <ele>1087.87</ele>
      </trkpt>
      <trkpt lat="41.96932" lon="13.732068">
        <ele>1090.04</ele>
      </trkpt>
      <trkpt lat="41.969462" lon="13.731996">
        <ele>1089.13</ele>
      </trkpt>
      <trkpt lat="41.969541" lon="13.731971">
        <ele>1088.75</ele>
      </trkpt>
      <trkpt lat="41.969649" lon="13.731957">
        <ele>1089.02</ele>
      </trkpt>
      <trkpt lat="41.969759" lon="13.731962">
        <ele>1089.35</ele>
      </trkpt>
      <trkpt lat="41.970052" lon="13.732039">
        <ele>1091.06</ele>
      </trkpt>
      <trkpt lat="41.970377" lon="13.732117">
        <ele>1090.04</ele>
      </trkpt>
      <trkpt lat="41.970675" lon="13.732234">
        <ele>1084.4</ele>
      </trkpt>
      <trkpt lat="41.970791" lon="13.732375">
        <ele>1082.98</ele>
      </trkpt>
      <trkpt lat="41.970935" lon="13.73268">
        <ele>1081.92</ele>
      </trkpt>
      <trkpt lat="41.971139" lon="13.733187">
        <ele>1082</ele>
      </trkpt>
      <trkpt lat="41.971311" lon="13.733336">
        <ele>1078.22</ele>
      </trkpt>
      <trkpt lat="41.971447" lon="13.733437">
        <ele>1075.88</ele>
      </trkpt>
      <trkpt lat="41.971492" lon="13.733381">
        <ele>1074.74</ele>
      </trkpt>
      <trkpt lat="41.971492" lon="13.733381">
        <ele>1074.74</ele>
      </trkpt>
      <trkpt lat="41.971447" lon="13.733437">
        <ele>1075.88</ele>
      </trkpt>
      <trkpt lat="41.97156" lon="13.733522">
        <ele>1074.95</ele>
      </trkpt>
      <trkpt lat="41.971682" lon="13.733767">
        <ele>1074.82</ele>
      </trkpt>
      <trkpt lat="41.972025" lon="13.734638">
        <ele>1072.52</ele>
      </trkpt>
      <trkpt lat="41.972224" lon="13.735055">
        <ele>1072.59</ele>
      </trkpt>
      <trkpt lat="41.972603" lon="13.735535">
        <ele>1074.38</ele>
      </trkpt>
      <trkpt lat="41.972983" lon="13.736016">
        <ele>1078.79</ele>
      </trkpt>
      <trkpt lat="41.973243" lon="13.736455">
        <ele>1082.39</ele>
      </trkpt>
      <trkpt lat="41.973381" lon="13.736544">
        <ele>1081.92</ele>
      </trkpt>
      <trkpt lat="41.973489" lon="13.736562">
        <ele>1081.37</ele>
      </trkpt>
    </trkseg>
  </trk>
</gpx>